{"version": 0.6, "generator": "Overpass API 0.7.55.1009 5e627b63", "osm3s": {"timestamp_osm_base": "2019-10-21T13:57:02Z", "timestamp_areas_base": "2019-10-21T11:54:02Z", "copyright": "The data included in this document is from www.openstreetmap.org. The data is made available under ODbL."}, "elements": [{"type": "node", "id": 566811986, "lat": 26.917309, "lon": 75.8035385, "tags": {"amenity": "post_office", "name": "Central Post GPO"}}, {"type": "node", "id": 566815183, "lat": 26.92336, "lon": 75.82549, "tags": {"amenity": "post_office", "name": "Post Bazar"}}, {"type": "node", "id": 566815520, "lat": 26.9162344, "lon": 75.8109013, "tags": {"amenity": "restaurant", "name": "Natraj vegetarian Restaurant"}}, {"type": "node", "id": 566816025, "lat": 26.9169155, "lon": 75.8581133, "tags": {"amenity": "place_of_worship", "name": "Galta (Monkey Temple)", "name:en": "Galta Ji (Monkey Temple)", "name:zh": "\u7334\u5e99"}}, {"type": "node", "id": 566816109, "lat": 26.9171235, "lon": 75.8522929, "tags": {"amenity": "place_of_worship", "name": "Sun Temple"}}, {"type": "node", "id": 691261875, "lat": 26.9106803, "lon": 75.7985655, "tags": {"amenity": "restaurant", "name": "Anokhi Cafe"}}, {"type": "node", "id": 1064270856, "lat": 26.9235814, "lon": 75.8005946, "tags": {"amenity": "bus_station", "name": "Main Bus Station", "name:en": "Jaipur Main Bus station"}}, {"type": "node", "id": 1338013506, "lat": 26.9457198, "lon": 75.7978395, "tags": {"amenity": "place_of_worship", "name": "Jain Temple", "religion": "jain"}}, {"type": "node", "id": 1466911301, "lat": 26.9163399, "lon": 75.807437, "tags": {"amenity": "atm"}}, {"type": "node", "id": 1466911306, "lat": 26.9152206, "lon": 75.8099046, "tags": {"amenity": "fast_food"}}, {"type": "node", "id": 1466912420, "lat": 26.9162347, "lon": 75.8108916, "tags": {"amenity": "library"}}, {"type": "node", "id": 1466912423, "lat": 26.9162251, "lon": 75.8109024, "tags": {"amenity": "school"}}, {"type": "node", "id": 1466912425, "lat": 26.9162654, "lon": 75.8114782, "tags": {"amenity": "library"}}, {"type": "node", "id": 1483221225, "lat": 26.8942238, "lon": 75.8155544, "tags": {"amenity": "parking", "parking": "surface"}}, {"type": "node", "id": 1496872518, "lat": 26.9154381, "lon": 75.8089288, "tags": {"amenity": "marketplace"}}, {"type": "node", "id": 1496872520, "lat": 26.915706, "lon": 75.8206447, "tags": {"amenity": "parking"}}, {"type": "node", "id": 1751113799, "lat": 26.9165302, "lon": 75.7955802, "tags": {"amenity": "restaurant", "cuisine": "indian", "source": "personal survey"}}, {"type": "node", "id": 1753685090, "lat": 26.9178291, "lon": 75.8514372, "tags": {"amenity": "drinking_water"}}, {"type": "node", "id": 2072540591, "lat": 26.9224909, "lon": 75.7923423, "tags": {"alt_name": "Forresta", "amenity": "bar", "int_name": "Devraj Niwas", "name": "The Forresta Kitchen & Bar", "wifi": "free"}}, {"type": "node", "id": 2130270210, "lat": 26.8932773, "lon": 75.7406137, "tags": {"addr:housenumber": "57", "addr:street": "hanuman Vatika-2, Tagore Nagar, Ajmer Road,", "amenity": "dentist", "name": "Dental Care Centre 1"}}, {"type": "node", "id": 2130274953, "lat": 26.9149, "lon": 75.7947041, "tags": {"addr:housenumber": "1", "addr:street": "Gopal Bari, Ajmer Road", "amenity": "doctors", "name": "Dental Care Centre 2"}}, {"type": "node", "id": 2130276039, "lat": 26.9304084, "lon": 75.8117789, "tags": {"addr:housenumber": "2976", "addr:street": "uniyaro ka rasta, 3rd cross", "amenity": "school", "name": "New Pupils Senior Secondary School"}}, {"type": "node", "id": 2231198497, "lat": 27.1872237, "lon": 75.6254991, "tags": {"amenity": "bank", "atm": "yes", "fee": "yes", "operator": "SBI"}}, {"type": "node", "id": 2242218395, "lat": 26.9149876, "lon": 75.7208819, "tags": {"addr:housenumber": "5", "addr:street": "Vaishali Marg west", "amenity": "college", "name": "Nav Bharti P I T I"}}, {"type": "node", "id": 2583229954, "lat": 26.9168711, "lon": 75.8201955, "tags": {"amenity": "restaurant", "name": "Ganesh Restaurant"}}, {"type": "node", "id": 2588693903, "lat": 26.9164964, "lon": 75.8112486, "tags": {"amenity": "fast_food", "name": "Lassiwala"}}, {"type": "node", "id": 2658139576, "lat": 26.9158472, "lon": 75.8222237, "tags": {"amenity": "atm"}}, {"type": "node", "id": 2684721077, "lat": 26.9108905, "lon": 75.7889678, "tags": {"addr:city": "Jaipur", "addr:street": "Achrol House, Civil Lines", "amenity": "restaurant", "name": "Spice Court"}}, {"type": "node", "id": 2684968689, "lat": 26.9195889, "lon": 75.8260441, "tags": {"alt_name": "LMB", "amenity": "restaurant", "cuisine": "indian", "name": "Laxmi Mishthan Bhandar"}}, {"type": "node", "id": 2690849642, "lat": 26.9223905, "lon": 75.7947798, "tags": {"amenity": "parking"}}, {"type": "node", "id": 2690970281, "lat": 26.9026493, "lon": 75.7923721, "tags": {"amenity": "fuel", "brand": "Hindustan Petroleum", "name": "HP"}}, {"type": "node", "id": 2690970389, "lat": 26.9026028, "lon": 75.7926001, "tags": {"amenity": "atm", "brand": "Axis Bank"}}, {"type": "node", "id": 2692620780, "lat": 26.9549389, "lon": 75.7780051, "tags": {"amenity": "school", "name": "Biyani College"}}, {"type": "node", "id": 2692620884, "lat": 26.968861, "lon": 75.7734203, "tags": {"amenity": "hospital", "name": "Soni Manipal Hospital"}}, {"type": "node", "id": 2694200840, "lat": 26.9047068, "lon": 75.7805686, "tags": {"addr:city": "Jaipur", "addr:housenumber": "1 Shivaji Nagar, Civil Lines, jaipur \u2013 302006, Rajasthan, India", "addr:postcode": "302006", "addr:street": "1 Shivaji Nagar, Civil Lines", "amenity": "hospital", "healthcare": "hospital", "name": "ALCS: Cosmetic Surgery, Hair Transplant & Laser Clinic in Jaipur"}}, {"type": "node", "id": 2694200959, "lat": 26.9039855, "lon": 75.7821092, "tags": {"amenity": "kindergarten", "name": "Loharu Montessori Childrens' School"}}, {"type": "node", "id": 2725271168, "lat": 26.8688181, "lon": 75.8061902, "tags": {"amenity": "school", "name": "Bharatiya Vidya Bhavan's Vidyashram"}}, {"type": "node", "id": 2725287779, "lat": 26.8760984, "lon": 75.8111925, "tags": {"amenity": "university", "name": "Vardhman Mahaveer Open University"}}, {"type": "node", "id": 2725289380, "lat": 26.8770677, "lon": 75.8116015, "tags": {"amenity": "college", "name": "University Commerce College", "wikidata": "Q5152422"}}, {"type": "node", "id": 2725290686, "lat": 26.8797471, "lon": 75.8123342, "tags": {"amenity": "college", "name": "Rajasthan College"}}, {"type": "node", "id": 2725293534, "lat": 26.8805476, "lon": 75.8105575, "tags": {"amenity": "library", "name": "Radha Krishna Central Library"}}, {"type": "node", "id": 2725295485, "lat": 26.8840927, "lon": 75.8129569, "tags": {"amenity": "police", "name": "Police Station Gandhi Circle"}}, {"type": "node", "id": 2725302272, "lat": 26.8894783, "lon": 75.8123403, "tags": {"amenity": "hospital", "name": "Prakritik Chikitsalaya"}}, {"type": "node", "id": 2725536808, "lat": 26.8935138, "lon": 75.813656, "tags": {"amenity": "hospital", "name": "Santokba Durlabhji Memorial Hospital"}}, {"type": "node", "id": 2725536812, "lat": 26.8971624, "lon": 75.8114868, "tags": {"amenity": "school", "name": "NCC School"}}, {"type": "node", "id": 2725536819, "lat": 26.8954739, "lon": 75.8097171, "tags": {"amenity": "college", "name": "SS Jain Subodh PG College"}}, {"type": "node", "id": 2725536822, "lat": 26.8940483, "lon": 75.8119244, "tags": {"amenity": "school", "name": "Subodh Public School", "wikidata": "Q7630292"}}, {"type": "node", "id": 2777043235, "lat": 26.9173942, "lon": 75.8046009, "tags": {"amenity": "restaurant", "name": "Old Green Tandori Dhaba"}}, {"type": "node", "id": 2777043242, "lat": 26.9244108, "lon": 75.82081, "tags": {"amenity": "place_of_worship", "name": "Iswari Minar Swarga Sali", "name:en": "Iswari Minar Swarga Sali (Isarlat)", "religion": "muslim"}}, {"type": "node", "id": 2920249801, "lat": 26.859618, "lon": 75.75361, "tags": {"amenity": "bank", "brand:wikidata": "Q1340361", "name": "State Bank of India", "short_name": "SBI", "website": "https://www.sbi.co.in", "wikidata": "Q1340361", "wikipedia": "en:State Bank of India"}}, {"type": "node", "id": 3076106633, "lat": 26.8618986, "lon": 75.8065197, "tags": {"addr:city": "jaipur", "addr:country": "IN", "addr:state": "Rajasthan", "addr:street": "JLN Road", "amenity": "food_court", "name": "Saras Parlur", "opening_hours": "sunrise-sunset"}}, {"type": "node", "id": 3077970035, "lat": 26.8490145, "lon": 75.7653843, "tags": {"addr:city": "Jaipur", "addr:country": "IN", "addr:district": "Jaipur", "addr:state": "Rajasthan", "amenity": "hospital", "name": "Saket Hospital"}}, {"type": "node", "id": 3077993837, "lat": 26.8483922, "lon": 75.7642762, "tags": {"addr:city": "Jaipur", "addr:country": "IN", "addr:district": "Jaipur", "addr:state": "Rajasthan", "amenity": "college", "name": "St. Wilfreds P.G. college"}}, {"type": "node", "id": 3077994633, "lat": 26.8441005, "lon": 75.7756676, "tags": {"addr:city": "Jaipur", "addr:country": "IN", "addr:district": "Jaipur", "addr:state": "Rajasthan", "amenity": "college", "name": "Aakashdeep TT girls college"}}, {"type": "node", "id": 3078036839, "lat": 26.841854, "lon": 75.7705301, "tags": {"addr:city": "Jaipur", "addr:district": "Jaipur", "amenity": "bank", "atm": "on", "brand": "ICICI", "brand:wikidata": "Q1653258", "name": "ICICI Bank", "name:en": "ICICI Bank", "short_name": "ICICI", "website": "https://www.icicibank.com", "wikidata": "Q1653258", "wikipedia": "en:ICICI Bank"}}, {"type": "node", "id": 3078036947, "lat": 26.8499173, "lon": 75.7686683, "tags": {"addr:city": "Jaipur", "addr:country": "IN", "addr:district": "Jaipur", "addr:state": "Rajasthan", "amenity": "restaurant", "name": "Hotel Raj Style Inn"}}, {"type": "node", "id": 3078036948, "lat": 26.8481625, "lon": 75.770165, "tags": {"addr:city": "Jaipur", "addr:country": "IN", "addr:district": "Jaipur", "addr:state": "Rajasthan", "amenity": "restaurant", "name": "Neelam Dhaba"}}, {"type": "node", "id": 3078036949, "lat": 26.8417732, "lon": 75.7705784, "tags": {"addr:city": "jaipur", "addr:country": "IN", "addr:district": "jaipur", "addr:state": "rajasthan", "amenity": "atm", "brand": "ICICI"}}, {"type": "node", "id": 3078036950, "lat": 26.8480092, "lon": 75.7690913, "tags": {"amenity": "atm", "brand": "HDFC"}}, {"type": "node", "id": 3078037141, "lat": 26.8479157, "lon": 75.7696431, "tags": {"amenity": "atm", "brand": "Insiund"}}, {"type": "node", "id": 3078037352, "lat": 26.8503573, "lon": 75.7733094, "tags": {"amenity": "atm", "brand": "Punjab national bank"}}, {"type": "node", "id": 3078037353, "lat": 26.8361321, "lon": 75.7782433, "tags": {"addr:city": "Jaipur", "addr:country": "IN", "addr:district": "Jaipur", "addr:state": "Rajasthan", "amenity": "cinema", "name": "Galaxy Cinema"}}, {"type": "node", "id": 3078037442, "lat": 26.8501192, "lon": 75.768529, "tags": {"amenity": "atm", "brand": "Axis"}}, {"type": "node", "id": 3078037540, "lat": 26.850362, "lon": 75.7685528, "tags": {"amenity": "atm", "brand": "SBI"}}, {"type": "node", "id": 3078037742, "lat": 26.8438307, "lon": 75.7706472, "tags": {"amenity": "atm", "brand": "ICICI"}}, {"type": "node", "id": 3078037743, "lat": 26.8502816, "lon": 75.7685846, "tags": {"amenity": "atm", "brand": "Punjab national bank"}}, {"type": "node", "id": 3078037744, "lat": 26.8496322, "lon": 75.7735414, "tags": {"amenity": "atm", "brand": "SBI"}}, {"type": "node", "id": 3078037746, "lat": 26.8399146, "lon": 75.7696685, "tags": {"addr:city": "Jaipur", "addr:country": "IN", "addr:district": "Jaipur", "addr:state": "Rajasthan", "amenity": "hospital", "name": "Curewell Hospital"}}, {"type": "node", "id": 3078037943, "lat": 26.8486595, "lon": 75.7687935, "tags": {"amenity": "atm", "brand": "SBI"}}, {"type": "node", "id": 3078038139, "lat": 26.847881, "lon": 75.7702746, "tags": {"addr:city": "Jaipur", "addr:country": "IN", "addr:district": "Jaipur", "addr:state": "Rajasthan", "amenity": "restaurant", "name": "Mahadev Dhaba"}}, {"type": "node", "id": 3078038140, "lat": 26.8446087, "lon": 75.7704359, "tags": {"amenity": "atm", "brand": "SBI"}}, {"type": "node", "id": 3081602535, "lat": 26.8624615, "lon": 75.8063864, "tags": {"addr:city": "Jaipur", "addr:country": "IN", "addr:state": "Rajasthan", "addr:street": "JLN Road", "amenity": "restaurant", "name": "Saras Parlur"}}, {"type": "node", "id": 3081604833, "lat": 26.8854381, "lon": 75.811892, "tags": {"addr:city": "Jaipur", "addr:country": "IN", "addr:state": "Rajasthan", "addr:street": "JLN Road", "amenity": "college", "name": "Kanodiya PG College"}}, {"type": "node", "id": 3081608243, "lat": 26.8885434, "lon": 75.8138498, "tags": {"addr:city": "Jaipur", "addr:country": "IN", "addr:state": "Rajasthan", "addr:street": "JLN Road", "amenity": "college", "name": "University of Rajasthan"}}, {"type": "node", "id": 3083726939, "lat": 26.8906056, "lon": 75.8145243, "tags": {"addr:city": "Jaipur", "addr:country": "IN", "addr:state": "Rajasthan", "addr:street": "JLN Road", "amenity": "atm", "brand": "ICICI", "operator": "ICICI"}}, {"type": "node", "id": 3083821746, "lat": 26.8626539, "lon": 75.806571, "tags": {"addr:city": "Jaipur", "addr:country": "IN", "addr:state": "Rajasthan", "addr:street": "JLN Road", "amenity": "atm", "brand": "SBI", "operator": "SBI"}}, {"type": "node", "id": 3083822036, "lat": 26.8628215, "lon": 75.8066208, "tags": {"addr:city": "Jaipur", "addr:country": "IN", "addr:state": "Rajasthan", "addr:street": "JLN Road", "amenity": "atm", "brand": "ICICI", "operator": "ICICI"}}, {"type": "node", "id": 3083894233, "lat": 26.8606149, "lon": 75.7563465, "tags": {"addr:city": "Jaipur", "addr:country": "IN", "addr:state": "Rajasthan", "addr:street": "New Sanganer Road", "amenity": "school", "name": "St. Anslem School"}}, {"type": "node", "id": 3083894234, "lat": 26.8599941, "lon": 75.7560724, "tags": {"amenity": "fuel", "brand": "HP"}}, {"type": "node", "id": 3083894235, "lat": 26.8798892, "lon": 75.758088, "tags": {"amenity": "fuel", "brand": "Indian Oil"}}, {"type": "node", "id": 3083894236, "lat": 26.8799846, "lon": 75.7642288, "tags": {"amenity": "fuel", "brand": "HP"}}, {"type": "node", "id": 3083894237, "lat": 26.8460486, "lon": 75.7770817, "tags": {"amenity": "fuel", "brand": "Indian Oil"}}, {"type": "node", "id": 3083894238, "lat": 26.8528101, "lon": 75.7798893, "tags": {"amenity": "fuel", "brand": "Indian Oil"}}, {"type": "node", "id": 3083894239, "lat": 26.8526183, "lon": 75.7820266, "tags": {"addr:city": "Jaipur", "addr:country": "IN", "addr:state": "Rajasthan", "amenity": "atm", "brand": "SBi", "operator": "SBI"}}, {"type": "node", "id": 3083894333, "lat": 26.8613433, "lon": 75.7647718, "tags": {"amenity": "fuel", "brand": "Indian Oil"}}, {"type": "node", "id": 3083894533, "lat": 26.8496805, "lon": 75.7936962, "tags": {"addr:city": "Jaipur", "addr:country": "IN", "addr:state": "Rajasthan", "amenity": "atm", "brand": "ICICI", "operator": "ICICI"}}, {"type": "node", "id": 3083894534, "lat": 26.8458821, "lon": 75.7934158, "tags": {"addr:city": "Jaipur", "addr:country": "IN", "addr:state": "Rajasthan", "amenity": "atm", "brand": "SBI", "operator": "SBI"}}, {"type": "node", "id": 3083894633, "lat": 26.8465139, "lon": 75.7934439, "tags": {"addr:city": "Jaipur", "addr:country": "IN", "addr:state": "Rajasthan", "amenity": "atm", "brand": "Axis", "operator": "Axis"}}, {"type": "node", "id": 3083894733, "lat": 26.8471955, "lon": 75.8075898, "tags": {"addr:city": "Jaipur", "addr:country": "IN", "addr:state": "Rajasthan", "amenity": "fuel", "brand": "HP", "name": "Shaheed Amit Bharadwaj Petrol Pump"}}, {"type": "node", "id": 3083894833, "lat": 26.864811, "lon": 75.796631, "tags": {"amenity": "fuel", "brand": "Indian Oil"}}, {"type": "node", "id": 3083894834, "lat": 26.8722798, "lon": 75.7970666, "tags": {"amenity": "fuel", "brand": "HP"}}, {"type": "node", "id": 3083894933, "lat": 26.9169424, "lon": 75.8169212, "tags": {"amenity": "fuel", "brand": "HP"}}, {"type": "node", "id": 3158029762, "lat": 27.1749238, "lon": 75.9542802, "tags": {"amenity": "fast_food", "cuisine": "pizza,pazata,paneer_roll", "name": "The Canteen"}}, {"type": "node", "id": 3209386497, "lat": 26.9207088, "lon": 75.8042575, "tags": {"amenity": "cafe", "name": "Chitra Caf\u00e9"}}, {"type": "node", "id": 3257769065, "lat": 26.9095963, "lon": 75.8007831, "tags": {"amenity": "post_box"}}, {"type": "node", "id": 3258234520, "lat": 26.9163659, "lon": 75.811533, "tags": {"amenity": "restaurant", "name": "Niros", "name:hi": "Niros - nice food. 250-500pp"}}, {"type": "node", "id": 3476214795, "lat": 26.8589613, "lon": 75.803689, "tags": {"addr:city": "Jaipur", "addr:postcode": "302018", "addr:street": "Jawaharlal Nehru Marg", "amenity": "school", "name": "Jaipuria Vidyalaya"}}, {"type": "node", "id": 3476216925, "lat": 26.8569226, "lon": 75.8009531, "tags": {"addr:city": "Jaipur", "addr:postcode": "302018", "addr:street": "Basant Vihar, Bajaj Nagar", "amenity": "hospital", "emergency": "yes", "name": "Jaipuria Hospital"}}, {"type": "node", "id": 3476221910, "lat": 26.8544337, "lon": 75.8082444, "tags": {"amenity": "restaurant", "capacity": "100", "cuisine": "regional", "name": "Kanha", "smoking": "no", "takeaway": "no"}}, {"type": "node", "id": 3560470590, "lat": 26.8621894, "lon": 75.812195, "tags": {"amenity": "hospital", "name": "MNIT college Dispensary", "operator": "MNIT"}}, {"type": "node", "id": 3677351613, "lat": 26.9177877, "lon": 75.7998401, "tags": {"amenity": "atm", "name": "Indian State Bank"}}, {"type": "node", "id": 3677353029, "lat": 26.91869, "lon": 75.7985653, "tags": {"amenity": "atm", "name": "Karnataka Bank"}}, {"type": "node", "id": 3677353030, "lat": 26.9180818, "lon": 75.7996134, "tags": {"amenity": "atm", "name": "Icici Bank"}}, {"type": "node", "id": 3677353031, "lat": 26.9169156, "lon": 75.8063152, "tags": {"amenity": "fuel", "name": "HP"}}, {"type": "node", "id": 3677355516, "lat": 26.9183265, "lon": 75.7995141, "tags": {"amenity": "atm", "name": "Indian Overseas Bank"}}, {"type": "node", "id": 3677355517, "lat": 26.9179421, "lon": 75.7999212, "tags": {"amenity": "bar", "name": "Amigos bar"}}, {"type": "node", "id": 3685074340, "lat": 26.9173922, "lon": 75.7951707, "tags": {"amenity": "pharmacy"}}, {"type": "node", "id": 3685074341, "lat": 26.9194143, "lon": 75.7986345, "tags": {"amenity": "atm", "name": "Indian Bank"}}, {"type": "node", "id": 3685074595, "lat": 26.9174637, "lon": 75.797276, "tags": {"amenity": "pharmacy"}}, {"type": "node", "id": 3685074596, "lat": 26.915555, "lon": 75.7949393, "tags": {"amenity": "cafe", "name": "Nibs"}}, {"type": "node", "id": 3685075825, "lat": 26.9193125, "lon": 75.7998402, "tags": {"addr:housenumber": "109", "addr:street": "M. I. Road", "amenity": "fast_food", "name": "Pizza Hut"}}, {"type": "node", "id": 3685076425, "lat": 26.9195736, "lon": 75.7986796, "tags": {"amenity": "atm", "name": "Catholic Syrian Bank"}}, {"type": "node", "id": 3747084918, "lat": 27.0114145, "lon": 75.7524592, "tags": {"amenity": "place_of_worship", "name": "bomiyaji mandir", "religion": "christian"}}, {"type": "node", "id": 3747099717, "lat": 27.0140038, "lon": 75.7534759, "tags": {"amenity": "bank", "name": "mini bank"}}, {"type": "node", "id": 3747116986, "lat": 27.0142879, "lon": 75.7530237, "tags": {"amenity": "cafe", "name": "nimmu chai dukan"}}, {"type": "node", "id": 3747144479, "lat": 27.0147967, "lon": 75.7492597, "tags": {"amenity": "place_of_worship", "name": "raghunathji ka mandir", "religion": "hindu"}}, {"type": "node", "id": 3747149989, "lat": 27.0145037, "lon": 75.7504738, "tags": {"amenity": "place_of_worship", "name": "Shiv Mandir", "religion": "hindu"}}, {"type": "node", "id": 3748751472, "lat": 26.8723969, "lon": 75.2644303, "tags": {"amenity": "place_of_worship", "name": "ramdevji mandir"}}, {"type": "node", "id": 3748791505, "lat": 26.872171, "lon": 75.2659909, "tags": {"amenity": "veterinary", "name": "vetrinaty hospital", "operator": "gram panchayat"}}, {"type": "node", "id": 3748791510, "lat": 26.878331, "lon": 75.2625184, "tags": {"amenity": "post_office"}}, {"type": "node", "id": 3748791518, "lat": 26.8777851, "lon": 75.2598471, "tags": {"amenity": "place_of_worship", "name": "balaji mandir", "religion": "hindu"}}, {"type": "node", "id": 3748798334, "lat": 26.8784135, "lon": 75.2623106, "tags": {"amenity": "place_of_worship", "name": "kishan mandir", "religion": "hindu"}}, {"type": "node", "id": 3748880499, "lat": 26.8730455, "lon": 75.2649761, "tags": {"amenity": "veterinary", "name": "Veterinary Hospital", "operator": "Gram Panchayat"}}, {"type": "node", "id": 3771356457, "lat": 26.7883749, "lon": 75.8333383, "tags": {"amenity": "college", "name": "Global technical college"}}, {"type": "node", "id": 3781906926, "lat": 26.9159839, "lon": 75.8098987, "tags": {"amenity": "fast_food", "name": "McDonald's"}}, {"type": "node", "id": 3788605554, "lat": 26.8808849, "lon": 75.7980181, "tags": {"amenity": "restaurant", "capacity": "50", "cuisine": "regional", "name": "Vitthal's Kitchen", "opening_hours": "10am to 11pm", "takeaway": "yes"}}, {"type": "node", "id": 3799194226, "lat": 26.6188739, "lon": 75.0640819, "tags": {"amenity": "restaurant", "name": "Kuber Resort"}}, {"type": "node", "id": 3806117789, "lat": 26.924589, "lon": 75.8178018, "tags": {"amenity": "place_of_worship", "name": "Sitaramji Temple", "religion": "hindu"}}, {"type": "node", "id": 3806140191, "lat": 26.9287662, "lon": 75.8239003, "tags": {"amenity": "place_of_worship", "name": "Govind Dev Ji Ka Mandir", "religion": "hindu"}}, {"type": "node", "id": 3806491204, "lat": 26.9270858, "lon": 75.7950165, "tags": {"amenity": "bank", "atm": "yes", "brand:wikidata": "Q1340361", "name": "State Bank of India", "short_name": "SBI", "wikidata": "Q1340361", "wikipedia": "en:State Bank of India"}}, {"type": "node", "id": 3806704620, "lat": 26.9161685, "lon": 75.8107981, "tags": {"amenity": "pharmacy", "name": "Sanjay Medical Store", "shop": "chemist"}}, {"type": "node", "id": 3806705156, "lat": 26.9160946, "lon": 75.8101221, "tags": {"amenity": "bank", "atm": "yes", "brand:wikidata": "Q2018840", "brand:wikipedia": "en:Allahabad Bank", "name": "Allahabad Bank", "name:en": "Allahabad Bank", "website": "https://www.allahabadbank.in"}}, {"type": "node", "id": 3806705457, "lat": 26.9161083, "lon": 75.8102147, "tags": {"amenity": "bank", "atm": "yes", "name": "J&K Bank"}}, {"type": "node", "id": 3806705458, "lat": 26.9161162, "lon": 75.8103552, "tags": {"amenity": "place_of_worship", "name": "Sri Nrisinghji Mandir"}}, {"type": "node", "id": 3806710562, "lat": 26.9163548, "lon": 75.8104287, "tags": {"amenity": "pharmacy", "name": "Himalaya", "shop": "chemist"}}, {"type": "node", "id": 3809460639, "lat": 27.3986504, "lon": 75.9755557, "tags": {"amenity": "restaurant", "cuisine": "indian", "name": "RTDC Midway Shahpura"}}, {"type": "node", "id": 3809487663, "lat": 27.4499003, "lon": 76.1759902, "tags": {"addr:city": "Viratnagar", "amenity": "place_of_worship", "name": "Shri 1008 Pasharvanath Digambar Jain Nashia", "religion": "jain"}}, {"type": "node", "id": 3812178529, "lat": 26.9171317, "lon": 75.743645, "tags": {"amenity": "car_wash", "name": "3M"}}, {"type": "node", "id": 3828203057, "lat": 27.158614, "lon": 75.9605345, "tags": {"amenity": "restaurant", "name": "Sky Waltz"}}, {"type": "node", "id": 3830464221, "lat": 26.9311763, "lon": 75.8004455, "tags": {"addr:city": "Jaipur", "addr:postcode": "302016", "addr:street": "Meera Marg", "amenity": "fast_food", "name": "Shree Ganesh Namkeen Bhandar"}}, {"type": "node", "id": 3840690967, "lat": 26.9024219, "lon": 75.7861608, "tags": {"amenity": "place_of_worship", "name": "Ram Mandir", "religion": "hindu"}}, {"type": "node", "id": 3840693080, "lat": 26.9026832, "lon": 75.7855382, "tags": {"amenity": "school", "name": "Yash Vidya Mandir"}}, {"type": "node", "id": 3840693081, "lat": 26.9025479, "lon": 75.7853756, "tags": {"amenity": "bank", "atm": "yes", "brand:wikidata": "Q1340361", "name": "State Bank of India", "short_name": "SBI", "wikidata": "Q1340361", "wikipedia": "en:State Bank of India"}}, {"type": "node", "id": 3842336539, "lat": 26.9142639, "lon": 75.8084565, "tags": {"amenity": "bank", "name": "Rajasthan Urban Co-Operative Bank"}}, {"type": "node", "id": 3842344275, "lat": 26.9165386, "lon": 75.8096692, "tags": {"amenity": "atm", "name": "Axis Bank"}}, {"type": "node", "id": 3842344276, "lat": 26.9164285, "lon": 75.8094487, "tags": {"amenity": "restaurant", "cuisine": "chinese", "name": "Yo China"}}, {"type": "node", "id": 3842344277, "lat": 26.9165651, "lon": 75.8090709, "tags": {"amenity": "fuel", "name": "Bharat Petroleum"}}, {"type": "node", "id": 3842353310, "lat": 26.9164011, "lon": 75.807356, "tags": {"amenity": "bank", "atm": "yes", "name": "Standard Chartered Bank"}}, {"type": "node", "id": 3842353311, "lat": 26.9163608, "lon": 75.8077409, "tags": {"amenity": "bank", "atm": "yes", "brand": "ICICI", "brand:wikidata": "Q1653258", "name": "ICICI Bank", "name:en": "ICICI Bank", "short_name": "ICICI", "website": "https://www.icicibank.com", "wikidata": "Q1653258", "wikipedia": "en:ICICI Bank"}}, {"type": "node", "id": 3842381184, "lat": 26.9162514, "lon": 75.8086879, "tags": {"amenity": "bank", "brand:wikidata": "Q2743499", "name": "Punjab National Bank", "name:en": "Punjab National Bank", "short_name": "PNB", "website": "https://www.pnbindia.in", "wikidata": "Q2743499", "wikipedia": "en:Punjab National Bank"}}, {"type": "node", "id": 3842381188, "lat": 26.9165611, "lon": 75.8090348, "tags": {"amenity": "fuel", "name": "Bharat Petroleum"}}, {"type": "node", "id": 3842381190, "lat": 26.916658, "lon": 75.8089072, "tags": {"amenity": "marketplace", "name": "Jayanti Market"}}, {"type": "node", "id": 3862442972, "lat": 26.9038746, "lon": 75.7923935, "tags": {"amenity": "cinema", "name": "Inox"}}, {"type": "node", "id": 3875761989, "lat": 26.9170881, "lon": 75.743631, "tags": {"amenity": "cafe", "name": "Corner 10"}}, {"type": "node", "id": 3875761990, "lat": 26.9170983, "lon": 75.7433527, "tags": {"amenity": "bank", "atm": "yes", "brand:wikidata": "Q1340361", "name": "State Bank of India", "short_name": "SBI", "website": "https://www.sbi.co.in", "wikidata": "Q1340361", "wikipedia": "en:State Bank of India"}}, {"type": "node", "id": 3895029898, "lat": 26.8895118, "lon": 75.793699, "tags": {"amenity": "atm", "name": "State Bank ATM"}}, {"type": "node", "id": 3895030590, "lat": 26.9253855, "lon": 75.825566, "tags": {"amenity": "toilets", "name": "Pay Toilet"}}, {"type": "node", "id": 3895030591, "lat": 26.8895136, "lon": 75.79346, "tags": {"amenity": "atm", "name": "Money Spot ATM"}}, {"type": "node", "id": 3895030688, "lat": 26.8894912, "lon": 75.7936148, "tags": {"amenity": "atm", "name": "Yes Bank ATM"}}, {"type": "node", "id": 3895030695, "lat": 26.8896655, "lon": 75.7934795, "tags": {"amenity": "atm", "name": "Axis Bank ATM"}}, {"type": "node", "id": 3912110531, "lat": 26.9216983, "lon": 75.7968445, "tags": {"addr:postcode": "302001", "addr:street": "Station Road", "amenity": "restaurant", "name": "Kanyi Restaurant"}}, {"type": "node", "id": 4015018939, "lat": 26.9060748, "lon": 75.7970467, "tags": {"addr:city": "Jaipur", "addr:housenumber": "R-14", "addr:postcode": "302001", "addr:street": "Yudhishthir Marg", "amenity": "cafe", "cuisine": "coffee_shop", "internet_access": "no", "level": "0", "name": "Cafe Coffee Day", "opening_hours": "11:00-23:00", "phone": "+911414048647", "smoking": "outside", "website": "https://www.cafecoffeeday.com/", "wheelchair": "limited", "wikidata": "Q5017235", "wikipedia": "en:Caf\u00e9 Coffee Day"}}, {"type": "node", "id": 4015041301, "lat": 26.906136, "lon": 75.7969589, "tags": {"addr:city": "Jaipur", "addr:housenumber": "R-14", "addr:postcode": "302001", "addr:street": "Yudhishthir Marg", "amenity": "bar", "level": "-1_&_0", "name": "100% Rock", "opening_hours": "11:00-23:00", "operator": "Hotel Shikha", "phone": "+911414031212", "smoking": "outside", "website": "https://www.hotelshikha.com/bar-restaurant-jaipur.htm", "wheelchair": "limited"}}, {"type": "node", "id": 4140540310, "lat": 26.9665232, "lon": 75.7719264, "tags": {"amenity": "cinema", "name": "Alka Theatre"}}, {"type": "node", "id": 4141406918, "lat": 26.9718162, "lon": 75.7652309, "tags": {"addr:housenumber": "1", "addr:postcode": "327001", "addr:street": "Mohan colony UDAIPUR road banswara", "amenity": "bank", "brand:wikidata": "Q2007090", "brand:wikipedia": "en:Central Bank of India", "name": "Central Bank of India", "name:en": "Central Bank of India", "website": "https://www.centralbankofindia.co.in"}}, {"type": "node", "id": 4141428087, "lat": 26.970402, "lon": 75.7647832, "tags": {"amenity": "police", "name": "Police Station Murlipura"}}, {"type": "node", "id": 4225230292, "lat": 26.8287089, "lon": 75.8444297, "tags": {"addr:postcode": "302017", "amenity": "place_of_worship", "name": "Khatu Shyam Mandir"}}, {"type": "node", "id": 4225230790, "lat": 26.8302252, "lon": 75.8430389, "tags": {"addr:postcode": "302017", "amenity": "school", "name": "Turtles School"}}, {"type": "node", "id": 4225292290, "lat": 26.8309327, "lon": 75.8428982, "tags": {"addr:postcode": "302017", "amenity": "place_of_worship", "name": "Gurudwara"}}, {"type": "node", "id": 4226402890, "lat": 26.8309385, "lon": 75.8426873, "tags": {"amenity": "atm", "operator": "Axis Bank ATM"}}, {"type": "node", "id": 4226402893, "lat": 26.8217049, "lon": 75.8168559, "tags": {"amenity": "bar", "name": "Sukoon Bar"}}, {"type": "node", "id": 4226406191, "lat": 26.8503126, "lon": 75.8256551, "tags": {"amenity": "fuel", "name": "Reliance Petrol Pump"}}, {"type": "node", "id": 4226406292, "lat": 26.88125, "lon": 75.8061827, "tags": {"amenity": "school", "name": "Gandhi Nagar Girl's School 1"}}, {"type": "node", "id": 4226406593, "lat": 26.8219982, "lon": 75.8109285, "tags": {"amenity": "restaurant", "name": "Cheel Gadi, Sanganer"}}, {"type": "node", "id": 4226410891, "lat": 26.8717478, "lon": 75.8211549, "tags": {"amenity": "fuel", "name": "Shaheed Basti Ram Petrol Pump"}}, {"type": "node", "id": 4226413890, "lat": 26.8596315, "lon": 75.8087621, "tags": {"amenity": "fuel", "name": "Bharat Petroleum Petrol Pump"}}, {"type": "node", "id": 4226413989, "lat": 26.8307537, "lon": 75.8432337, "tags": {"amenity": "atm", "operator": "Union Bank"}}, {"type": "node", "id": 4226415289, "lat": 26.8528358, "lon": 75.8243583, "tags": {"amenity": "fuel", "name": "Indian Oil Petrol Pump"}}, {"type": "node", "id": 4226415489, "lat": 26.8547506, "lon": 75.8252712, "tags": {"amenity": "hospital", "name": "Apex Hospital"}}, {"type": "node", "id": 4226415589, "lat": 26.8228017, "lon": 75.8482272, "tags": {"amenity": "hospital", "name": "Krishna Ram Charitable Hospital"}}, {"type": "node", "id": 4297282789, "lat": 26.8332116, "lon": 75.7520192, "tags": {"amenity": "school", "name": "VPM Classes"}}, {"type": "node", "id": 4306106590, "lat": 26.9195689, "lon": 75.8545146, "tags": {"amenity": "place_of_worship"}}, {"type": "node", "id": 4306123990, "lat": 26.9287664, "lon": 75.8263453, "tags": {"amenity": "place_of_worship", "name": "Gurudwara"}}, {"type": "node", "id": 4323259592, "lat": 27.1175351, "lon": 75.5055515, "tags": {"amenity": "place_of_worship", "name": "Harji Ram Baba Temple, Khera Rampura"}}, {"type": "node", "id": 4348672497, "lat": 26.9198945, "lon": 75.7987261, "tags": {"amenity": "restaurant", "name": "Mohan Restaurant"}}, {"type": "node", "id": 4427307090, "lat": 26.9399601, "lon": 75.7312005, "tags": {"amenity": "atm", "highway": "bus_stop"}}, {"type": "node", "id": 4427334090, "lat": 26.9604096, "lon": 75.7605386, "tags": {"amenity": "hospital"}}, {"type": "node", "id": 4427339589, "lat": 26.9369522, "lon": 75.7573272, "tags": {"addr:housenumber": "2B", "addr:postcode": "302012", "addr:street": "Khatipura Road", "amenity": "fire_station", "name:en": "Home", "phone": "01412466336", "tourism": "attraction"}}, {"type": "node", "id": 4427339989, "lat": 26.9078153, "lon": 75.7492611, "tags": {"amenity": "library", "shop": "computer"}}, {"type": "node", "id": 4456062589, "lat": 27.2507184, "lon": 75.6514793, "tags": {"amenity": "doctors", "name:en": "CHC Govindgarh"}}, {"type": "node", "id": 4456109605, "lat": 27.0782842, "lon": 75.9395895, "tags": {"amenity": "restaurant", "cuisine": "indian", "name": "Shravan Hotel And Restaurant", "phone": "+919929238948"}}, {"type": "node", "id": 4460472108, "lat": 26.9151335, "lon": 75.8099213, "tags": {"amenity": "fast_food", "name": "Domino's Pizza"}}, {"type": "node", "id": 4464789989, "lat": 26.9170942, "lon": 75.8200153, "tags": {"amenity": "restaurant", "name:en": "Sweet Dreams Hotel Rooftop Restaurant", "tourism": "hotel"}}, {"type": "node", "id": 4466075493, "lat": 26.9270367, "lon": 75.8281377, "tags": {"amenity": "restaurant", "cuisine": "indian", "name:en": "Kailash Restaurant"}}, {"type": "node", "id": 4466633240, "lat": 26.9137147, "lon": 75.8294774, "tags": {"amenity": "fuel"}}, {"type": "node", "id": 4466633244, "lat": 26.893253, "lon": 75.812105, "tags": {"amenity": "hospital", "name": "SDMH"}}, {"type": "node", "id": 4466634116, "lat": 26.9014058, "lon": 75.7831162, "tags": {"amenity": "clinic", "name": "indian acupuncture training and research institute"}}, {"type": "node", "id": 4466634118, "lat": 26.8951673, "lon": 75.8149318, "tags": {"amenity": "hospital", "name": "soni hospital"}}, {"type": "node", "id": 4466634119, "lat": 26.9093956, "lon": 75.8186256, "tags": {"amenity": "toilets"}}, {"type": "node", "id": 4466634254, "lat": 26.901561, "lon": 75.7827, "tags": {"amenity": "fuel"}}, {"type": "node", "id": 4481447368, "lat": 26.9306298, "lon": 75.804562, "tags": {"amenity": "marketplace", "name": "Sikar House"}}, {"type": "node", "id": 4486242089, "lat": 26.9209467, "lon": 75.8039761, "tags": {"amenity": "restaurant", "cuisine": "italian_pizza", "name:en": "Bella Italia"}}, {"type": "node", "id": 4486250984, "lat": 26.7600135, "lon": 75.3467918, "tags": {"amenity": "restaurant", "cuisine": "indian", "name": "Hotel King Land"}}, {"type": "node", "id": 4511686895, "lat": 26.9295583, "lon": 75.7956827, "tags": {"amenity": "school", "name": "Maharani School"}}, {"type": "node", "id": 4537269090, "lat": 26.8930025, "lon": 75.8320808, "tags": {"amenity": "restaurant", "cuisine": "indian", "name:en": "Harishankar"}}, {"type": "node", "id": 4537365003, "lat": 26.983062, "lon": 75.8444611, "tags": {"amenity": "restaurant", "name": "Jaighar"}}, {"type": "node", "id": 4547443698, "lat": 26.9483121, "lon": 75.8404444, "tags": {"amenity": "cafe", "cuisine": "indian", "internet_access": "wlan", "name:en": "Rainbow Restaurant"}}, {"type": "node", "id": 4550469478, "lat": 26.93374, "lon": 75.7898598, "tags": {"amenity": "marketplace", "name": "Sindhi Colony Market"}}, {"type": "node", "id": 4552313705, "lat": 26.904094, "lon": 75.802141, "tags": {"addr:street": "sec jpr", "amenity": "embassy", "fixme": "is this an embassy, consulate? The name looks wrong. Might just be the name of the road!", "name:en": "Sec jpr"}}, {"type": "node", "id": 4562817902, "lat": 26.921112, "lon": 75.796593, "tags": {"addr:postcode": "302001", "addr:street": "Station Road", "amenity": "cafe", "name:en": "Rawat Misthan Bhandar", "opening_hours": "Mo-Su 11:00-23:00"}}, {"type": "node", "id": 4568171759, "lat": 26.9764494, "lon": 75.772514, "tags": {"amenity": "place_of_worship", "name": "Hanuman Temple", "religion": "hindu"}}, {"type": "node", "id": 4568171760, "lat": 26.9770506, "lon": 75.7723302, "tags": {"amenity": "place_of_worship", "name": "Kalyanji Temple", "religion": "hindu"}}, {"type": "node", "id": 4568171767, "lat": 26.9791212, "lon": 75.7676301, "tags": {"amenity": "place_of_worship", "name": "Temple", "religion": "hindu"}}, {"type": "node", "id": 4568171768, "lat": 26.9764906, "lon": 75.7716167, "tags": {"amenity": "place_of_worship", "name": "Shiv Temple", "religion": "hindu"}}, {"type": "node", "id": 4568171769, "lat": 26.9731548, "lon": 75.7624373, "tags": {"amenity": "place_of_worship", "name": "Shani Temple", "religion": "hindu"}}, {"type": "node", "id": 4568171770, "lat": 26.9730831, "lon": 75.7625929, "tags": {"amenity": "place_of_worship", "name": "Temple", "religion": "hindu"}}, {"type": "node", "id": 4568171774, "lat": 26.9780336, "lon": 75.7740325, "tags": {"amenity": "bank", "brand": "ICICI", "brand:wikidata": "Q1653258", "name": "ICICI Bank", "name:en": "ICICI Bank", "short_name": "ICICI", "website": "https://www.icicibank.com", "wikidata": "Q1653258", "wikipedia": "en:ICICI Bank"}}, {"type": "node", "id": 4568171775, "lat": 26.9779571, "lon": 75.7738555, "tags": {"amenity": "bank", "brand:wikidata": "Q1340361", "name": "State Bank of India", "short_name": "SBI", "website": "https://www.sbi.co.in", "wikidata": "Q1340361", "wikipedia": "en:State Bank of India"}}, {"type": "node", "id": 4568171776, "lat": 26.9789491, "lon": 75.7749713, "tags": {"amenity": "bank", "brand:wikidata": "Q1340361", "name": "State Bank of India", "short_name": "SBI", "website": "https://www.sbi.co.in", "wikidata": "Q1340361", "wikipedia": "en:State Bank of India"}}, {"type": "node", "id": 4571213589, "lat": 26.866179, "lon": 75.7908165, "tags": {"amenity": "atm", "operator": "Lalit"}}, {"type": "node", "id": 4574391989, "lat": 26.9281393, "lon": 75.7911838, "tags": {"amenity": "bank", "name": "bank"}}, {"type": "node", "id": 4579745989, "lat": 26.9162863, "lon": 75.795699, "tags": {"amenity": "restaurant", "cuisine": "chinese;indian;italian", "internet_access": "wlan", "name:en": "Peacock rooftop restaurant", "opening_hours": "Mo-Su 07:30-23:30"}}, {"type": "node", "id": 4585639090, "lat": 26.8733395, "lon": 75.7494024, "tags": {"amenity": "atm"}}, {"type": "node", "id": 4621858291, "lat": 26.9185644, "lon": 75.8077715, "tags": {"addr:postcode": "302001", "addr:street": "9, Gopinath Marg, New Colony, Near Panch Batti", "amenity": "hospital", "email": "hospital@jaipurdentalhospital.com", "internet_access": "wlan", "name:en": "Jaipur Dental Hospital", "opening_hours": "Mo-Su 10:00-20:00", "phone": "+91-141-2368183", "website": "https://jaipurdentalhospital.com/"}}, {"type": "node", "id": 4623697391, "lat": 26.8933272, "lon": 75.7694168, "tags": {"amenity": "pharmacy"}}, {"type": "node", "id": 4701563692, "lat": 26.9261061, "lon": 75.8235565, "tags": {"amenity": "toilets"}}, {"type": "node", "id": 4703258191, "lat": 26.9236388, "lon": 75.8267581, "tags": {"amenity": "atm", "opening_hours": "24/7", "operator": "IndusInd Bank ATM"}}, {"type": "node", "id": 4703268090, "lat": 26.9146995, "lon": 75.7996987, "tags": {"amenity": "atm", "opening_hours": "24/7", "operator": "State Bank ATM"}}, {"type": "node", "id": 4703287189, "lat": 26.9139188, "lon": 75.799137, "tags": {"amenity": "atm", "opening_hours": "24/7", "operator": "India Post ATM"}}, {"type": "node", "id": 4703287289, "lat": 26.9147271, "lon": 75.7997268, "tags": {"amenity": "atm", "opening_hours": "24/7", "operator": "IndusInd Bank ATM"}}, {"type": "node", "id": 4706796989, "lat": 26.8978763, "lon": 75.8147386, "tags": {"amenity": "restaurant", "name:en": "Bar palladio"}}, {"type": "node", "id": 4706947494, "lat": 26.9196661, "lon": 75.7913021, "tags": {"amenity": "restaurant", "name:en": "Peshawri"}}, {"type": "node", "id": 4743392521, "lat": 26.9157551, "lon": 75.8101207, "tags": {"amenity": "restaurant", "cuisine": "chinese;ice_cream;pizza;indian;local", "name:de": "The Door's Restaurant", "name:en": "The Door's Restaurant", "phone": "+911414024597"}}, {"type": "node", "id": 4744477348, "lat": 26.8225833, "lon": 75.7798425, "tags": {"amenity": "hospital", "name": "Sparsh Hospital"}}, {"type": "node", "id": 4744500823, "lat": 26.9171606, "lon": 75.8145919, "tags": {"addr:street": "Mirza Ismail Road", "amenity": "cafe", "name": "India Coffe House", "opening_hours": "Mo-Su 08:00-21:00", "operator": "ynwaphoto"}}, {"type": "node", "id": 4744578221, "lat": 26.9164158, "lon": 75.7990648, "tags": {"amenity": "cafe", "name": "coffey Day"}}, {"type": "node", "id": 4759741309, "lat": 26.89131, "lon": 75.7590683, "tags": {"amenity": "restaurant", "cuisine": "indian;local;vegetarian", "name:en": "Green Chili", "name:fr": "Green Chili"}}, {"type": "node", "id": 4763765421, "lat": 26.9173574, "lon": 75.7994798, "tags": {"amenity": "atm", "operator": "boi"}}, {"type": "node", "id": 4784703223, "lat": 26.9270361, "lon": 75.8248127, "tags": {"amenity": "school", "name:en": "The Palace School"}}, {"type": "node", "id": 4787877205, "lat": 26.90134, "lon": 75.7848923, "tags": {"amenity": "bar", "name": "Ginger Hotel"}}, {"type": "node", "id": 4793756921, "lat": 26.9063113, "lon": 75.8150111, "tags": {"amenity": "hospital"}}, {"type": "node", "id": 4793756922, "lat": 26.9060159, "lon": 75.8161049, "tags": {"amenity": "hospital", "name:en": "sms hopital"}}, {"type": "node", "id": 4793756923, "lat": 26.917149, "lon": 75.8145028, "tags": {"amenity": "cafe", "name:en": "indian coffe house"}}, {"type": "node", "id": 4795736622, "lat": 26.9122319, "lon": 75.8037901, "tags": {"amenity": "restaurant", "name:en": "Mughal Rasoi Restaurant"}}, {"type": "node", "id": 4795744121, "lat": 26.9172308, "lon": 75.8029307, "tags": {"amenity": "restaurant", "name:en": "Handi Restaurant"}}, {"type": "node", "id": 4798048721, "lat": 26.90734, "lon": 75.8146282, "tags": {"amenity": "hospital"}}, {"type": "node", "id": 4798056521, "lat": 26.9078828, "lon": 75.8126688, "tags": {"amenity": "restaurant", "int_name": "V2 Fine Dining", "name:en": "V2 Fine Dining"}}, {"type": "node", "id": 4810721421, "lat": 26.9543753, "lon": 75.8420064, "tags": {"amenity": "atm", "operator": "SBI"}}, {"type": "node", "id": 4811264442, "lat": 26.9161858, "lon": 75.8106278, "tags": {"amenity": "cafe", "email": "v2cafelounge@gmail.com", "internet_access": "wlan", "name:en": "V2 Cafe Lounge"}}, {"type": "node", "id": 4824496421, "lat": 26.918594, "lon": 75.8677845, "tags": {"addr:housenumber": "P.O. Box 208", "addr:postcode": "302 001", "addr:street": "Sisodiarani Baug-Galtaji Road", "amenity": "place_of_worship", "email": "info@thali.dhamma.org", "name:en": "Dhamma Thali", "phone": "+91 0141 217-7446", "website": "https://thali.dhamma.org/"}}, {"type": "node", "id": 4826369122, "lat": 26.9120381, "lon": 75.7920659, "tags": {"amenity": "restaurant", "name": "Cheap food places", "name:hi": "Cheap food places"}}, {"type": "node", "id": 4830934021, "lat": 26.9063152, "lon": 75.7966924, "tags": {"amenity": "restaurant", "name": "Dhaba", "name:hi": "Dhaba"}}, {"type": "node", "id": 4849657022, "lat": 26.9200741, "lon": 75.7951866, "tags": {"amenity": "fast_food", "name:en": "Talk of the Town"}}, {"type": "node", "id": 4872701221, "lat": 26.9662724, "lon": 75.7824328, "tags": {"addr:postcode": "302039", "addr:street": "Sikar Road", "amenity": "pharmacy", "name:en": "IMC- Ayurveda Ravi ji", "opening_hours": "24/7", "operator": "Ravi Kumar Sharma", "phone": "9772222290", "website": "http://imcbusiness.com"}}, {"type": "node", "id": 4877294175, "lat": 26.9110124, "lon": 75.7421695, "tags": {"addr:city": "jaipur", "addr:housenumber": "S-5", "addr:postcode": "302021", "addr:street": "JDA Central Market, Beside MTS office, Near Amarpali Circle, Vaishali Nagar", "amenity": "restaurant", "capacity": "50", "delivery": "yes", "description": "Hotel Marc Inn, is a beautifully-constructed hotel nestled in Vaishali Nagar in Jaipur. With its pleasing colours and unique style, the hotel flaunts a magical ambience, making your stay grand. The hotel stands tall amidst the best hotels in the Pink City", "email": "hotelmarcinn@gmail.com", "name": "Hotel Marc Inn", "outdoor_seating": "yes", "phone": "+91-9001094661", "smoking": "outside", "takeaway": "yes", "website": "https://www.hotelmarcinn.com/"}}, {"type": "node", "id": 4880275221, "lat": 26.875564, "lon": 75.792605, "tags": {"addr:housenumber": "1337", "addr:postcode": "302015", "addr:street": "kisan marg", "amenity": "hospital", "name:en": "Jeevan Jyoti", "opening_hours": "Mo-Su 09:30-12:59", "phone": "01412595176"}}, {"type": "node", "id": 4880279121, "lat": 26.8680354, "lon": 75.8051633, "tags": {"amenity": "school", "name:en": "Allen"}}, {"type": "node", "id": 4895063322, "lat": 26.9198326, "lon": 75.824478, "tags": {"amenity": "restaurant", "name:en": "Khandelwal"}}, {"type": "node", "id": 4900113521, "lat": 26.9170642, "lon": 75.8046725, "tags": {"amenity": "restaurant", "name:en": "Green Restaurante Pure Vegetarian"}}, {"type": "node", "id": 4925893021, "lat": 26.9247396, "lon": 75.7895873, "tags": {"addr:housenumber": "D-160", "addr:postcode": "302016", "addr:street": "Kabir Marg", "amenity": "restaurant", "cuisine": "indian", "email": "chitchat7@hotmail.com", "name:en": "Chit Chat Restaurant", "phone": "+911412201899", "website": "http://www.chitchatjaipur.com"}}, {"type": "node", "id": 4959426923, "lat": 26.9331035, "lon": 75.8372573, "tags": {"addr:street": "Gangapole", "amenity": "restaurant", "cuisine": "indian;vegetarian", "name:en": "Samode Haveli"}}, {"type": "node", "id": 4959447121, "lat": 26.9867182, "lon": 75.8503449, "tags": {"addr:street": "Amer Road", "amenity": "restaurant", "cuisine": "indian;vegetarian;asian", "name:en": "1153 AD", "opening_hours": "Mo-Su 09:00-22:30"}}, {"type": "node", "id": 4959451821, "lat": 26.9130736, "lon": 75.7853986, "tags": {"addr:street": "Jacob Road", "amenity": "restaurant", "cuisine": "vegan;italian_pizza;vegetarian;italian", "name:en": "Giardino", "opening_hours": "Mo-Su 07:00-23:00"}}, {"type": "node", "id": 4959487622, "lat": 26.8978423, "lon": 75.8079481, "tags": {"amenity": "restaurant", "name:en": "Suvarna Mahal"}}, {"type": "node", "id": 4959496421, "lat": 26.9169731, "lon": 75.80407, "tags": {"addr:street": "Mirza Ismail Road", "amenity": "restaurant", "cuisine": "indian;vegetarian;asian", "name:en": "Copper Chimney", "opening_hours": "Mo-Su 18:30-23:00"}}, {"type": "node", "id": 4959540921, "lat": 26.9059106, "lon": 75.8113879, "tags": {"amenity": "restaurant", "name:en": "Tapri"}}, {"type": "node", "id": 4979230322, "lat": 26.9170047, "lon": 75.8036182, "tags": {"amenity": "bar", "name:en": "Copper chimny"}}, {"type": "node", "id": 5008679023, "lat": 26.7091968, "lon": 75.2714097, "tags": {"amenity": "toilets"}}, {"type": "node", "id": 5008832821, "lat": 26.7088064, "lon": 75.2711243, "tags": {"amenity": "fuel", "name:en": "HP"}}, {"type": "node", "id": 5008832822, "lat": 26.7083607, "lon": 75.2717439, "tags": {"amenity": "fuel"}}, {"type": "node", "id": 5010888622, "lat": 26.9866575, "lon": 75.8505167, "tags": {"amenity": "toilets", "fee": "yes"}}, {"type": "node", "id": 5016200924, "lat": 26.9408543, "lon": 75.8384138, "tags": {"amenity": "restaurant", "cuisine": "international;indian;chinese", "name:en": "Parampara"}}, {"type": "node", "id": 5026993621, "lat": 26.8528966, "lon": 75.8074411, "tags": {"addr:postcode": "302017", "addr:street": "JLN Marg", "amenity": "car_rental", "email": "info@unseenindia.us", "internet_access": "wlan", "name:en": "Jaipur Agra Jaipur Same Day Tour", "opening_hours": "24/7", "operator": "Bharat Kshatriya", "phone": "9929944447", "website": "http://www.unseenindia.us"}}, {"type": "node", "id": 5026993622, "lat": 26.842321, "lon": 75.79673, "tags": {"addr:postcode": "302017", "addr:street": "Jawahar Circle", "amenity": "car_rental", "email": "info@unseenindia.us", "internet_access": "wlan", "name:en": "Jaipur Car Hire & Rental", "opening_hours": "24/7", "operator": "Bharat Kshatriya", "phone": "9929944447", "website": "http://www.unseenindia.us"}}, {"type": "node", "id": 5033546322, "lat": 26.8149712, "lon": 75.8628121, "tags": {"addr:postcode": "302017", "amenity": "cafe", "name:en": "chai ki thadi"}}, {"type": "node", "id": 5033548721, "lat": 26.8010603, "lon": 75.7943713, "tags": {"amenity": "waste_disposal", "operator": "no one"}}, {"type": "node", "id": 5033618123, "lat": 26.8131969, "lon": 75.8640629, "tags": {"addr:housenumber": "plot no 112", "addr:postcode": "302017", "amenity": "fast_food", "name:en": "gulmohar park-1,plot no 112,jagatpur,jaipur,302017"}}, {"type": "node", "id": 5074567726, "lat": 26.942206, "lon": 75.8374738, "tags": {"amenity": "restaurant", "name:en": "Jal Mahal"}}, {"type": "node", "id": 5074575922, "lat": 26.9237826, "lon": 75.820574, "tags": {"amenity": "restaurant", "capacity": "50", "cuisine": "regional", "name": "Midtown Multicuisine Restaurant", "name:en": "Midtown multi cuisine restaurant"}}, {"type": "node", "id": 5144379721, "lat": 26.9050829, "lon": 75.7946411, "tags": {"addr:housenumber": "E-145 First", "addr:postcode": "302001", "addr:street": "Ramesh Marg", "amenity": "cafe", "internet_access": "wlan", "name:en": "Poppin Organic Caf\u00e9", "opening_hours": "Mo-Su 11:00-22:00", "phone": "+91 97996 28666", "website": "https://poppin-organic-cafe.business.site/"}}, {"type": "node", "id": 5144800321, "lat": 26.8945386, "lon": 75.7683878, "tags": {"addr:street": "Janpath", "amenity": "restaurant", "name:en": "Food court Indian/Belgium"}}, {"type": "node", "id": 5147754221, "lat": 26.9060714, "lon": 75.795372, "tags": {"amenity": "restaurant", "name:en": "Thank god it's healthy"}}, {"type": "node", "id": 5147754222, "lat": 26.9137268, "lon": 75.8028853, "tags": {"amenity": "bar", "name:en": "Frooce juice bar"}}, {"type": "node", "id": 5150211922, "lat": 27.6414981, "lon": 76.127875, "tags": {"addr:street": "Amer Road", "amenity": "restaurant", "cuisine": "indian", "name:en": "Payal Dhaba"}}, {"type": "node", "id": 5197727421, "lat": 26.9163958, "lon": 75.8179421, "tags": {"amenity": "ice_cream"}}, {"type": "node", "id": 5225682023, "lat": 26.923806, "lon": 75.8273105, "tags": {"amenity": "restaurant", "cuisine": "indian;local;coffee_shop", "name:en": "The Tatto Cafe"}}, {"type": "node", "id": 5226323124, "lat": 26.9213999, "lon": 75.7969477, "tags": {"amenity": "fast_food", "name:en": "Rawat Kachori"}}, {"type": "node", "id": 5227030921, "lat": 26.9498381, "lon": 75.8421508, "tags": {"amenity": "restaurant", "name:ja": "\u3042\u3042\u3042"}}, {"type": "node", "id": 5240550722, "lat": 26.9857405, "lon": 75.8542783, "tags": {"amenity": "cafe", "name:en": "The Stag Rooftop Cafe & Lounge"}}, {"type": "node", "id": 5242384122, "lat": 26.922995, "lon": 75.8257091, "tags": {"amenity": "ice_cream", "name:en": "Ramchandra Kulfi Bhandar"}}, {"type": "node", "id": 5249142721, "lat": 26.8951343, "lon": 75.8290109, "tags": {"amenity": "restaurant", "name:en": "Nand\u2019s and Chawla\u2019s"}}, {"type": "node", "id": 5249183922, "lat": 26.9185479, "lon": 75.7988406, "tags": {"amenity": "restaurant", "name:en": "Gulab ji chai"}}, {"type": "node", "id": 5249299221, "lat": 26.923861, "lon": 75.8273422, "tags": {"addr:housenumber": "30", "addr:postcode": "302002", "addr:street": "Badi Chaupar", "amenity": "bar", "cuisine": "sandwich;regional;international;cake;pasta;pancake;pizza;curry;indian;vegan;breakfast;local;italian;vegetarian", "email": "Pandey.karan@outlook.com", "internet_access": "wlan", "name:en": "The Tattoo Cafe", "opening_hours": "Mo-Su 08:00-23:00", "phone": "+919828065533"}}, {"type": "node", "id": 5283298222, "lat": 26.9304682, "lon": 75.8283942, "tags": {"amenity": "restaurant", "name": "Hawk View Roof Top Restaurant", "name:en": "Hawk View Roof Top Restaurant", "name:hi": "Hawk View Roof Top Restaurant", "name:hu": "Hawk View Roof Top Restaurant"}}, {"type": "node", "id": 5284145023, "lat": 26.917631, "lon": 75.7902938, "tags": {"addr:street": "Hasanpura Road", "amenity": "bus_station", "name:en": "Kalpana Chembar, near Hasanapura Puliya railway st."}}, {"type": "node", "id": 5286009221, "lat": 26.9185458, "lon": 75.8121333, "tags": {"amenity": "bank", "name": "State Bank of India", "name:en": "State Bank of India", "name:hi": "State Bank of India", "name:hu": "State Bank of India"}}, {"type": "node", "id": 5286009222, "lat": 26.9187052, "lon": 75.8072877, "tags": {"amenity": "bank", "name": "State Bank of India", "name:en": "State Bank of India", "name:hi": "State Bank of India", "name:hu": "State Bank of India"}}, {"type": "node", "id": 5287237003, "lat": 26.911393, "lon": 75.8193375, "tags": {"amenity": "toilets"}}, {"type": "node", "id": 5304974222, "lat": 26.9156527, "lon": 75.7960691, "tags": {"amenity": "bar", "name": "Full power"}}, {"type": "node", "id": 5314539421, "lat": 26.9145036, "lon": 75.8050323, "tags": {"addr:housenumber": "6", "addr:street": "Trimurti VJ point", "amenity": "bar", "name:en": "Frooce - the Juice Bar", "phone": "01415105858"}}, {"type": "node", "id": 5320578522, "lat": 26.8239279, "lon": 75.6541984, "tags": {"amenity": "cafe", "cuisine": "indian", "name:en": "Sadda adda"}}, {"type": "node", "id": 5340747922, "lat": 26.9244566, "lon": 75.78773, "tags": {"amenity": "restaurant", "name": "Shama Bhojnyala"}}, {"type": "node", "id": 5342932521, "lat": 26.9241359, "lon": 75.7897529, "tags": {"amenity": "restaurant", "name": "Maggie rooftop restaurant"}}, {"type": "node", "id": 5344204721, "lat": 26.925004, "lon": 75.8159025, "tags": {"amenity": "fast_food", "name": "Street food and chai corner"}}, {"type": "node", "id": 5344535321, "lat": 26.9237479, "lon": 75.8272732, "tags": {"amenity": "cafe", "name:en": "Wind view cafe"}}, {"type": "node", "id": 5344986724, "lat": 26.9214607, "lon": 75.790038, "tags": {"amenity": "fast_food", "name:ru": "\u0423\u043b\u0438\u0446\u0430 \u0420\u0435\u0441\u0442\u043e\u0440\u0430\u043d\u0447\u0438\u043a\u043e\u0432"}}, {"type": "node", "id": 5354365242, "lat": 26.8395607, "lon": 75.8005035, "tags": {"amenity": "bench"}}, {"type": "node", "id": 5354365243, "lat": 26.8402068, "lon": 75.8006884, "tags": {"amenity": "bench"}}, {"type": "node", "id": 5354365244, "lat": 26.8400446, "lon": 75.8013446, "tags": {"amenity": "bench"}}, {"type": "node", "id": 5354365245, "lat": 26.8394398, "lon": 75.8012122, "tags": {"amenity": "bench"}}, {"type": "node", "id": 5393075823, "lat": 26.9169628, "lon": 75.8053859, "tags": {"addr:housenumber": "151", "addr:street": "Mirza Ismail Road", "amenity": "restaurant", "name:en": "Old Kebab Shop", "opening_hours": "Mo-Su 16:00-23:00"}}, {"type": "node", "id": 5419597998, "lat": 26.8279302, "lon": 75.8062494, "tags": {"amenity": "restaurant", "description": "First Floor", "level": "1", "name": "CIP Lounge Airport Jaipur"}}, {"type": "node", "id": 5419597999, "lat": 26.8277778, "lon": 75.8061437, "tags": {"amenity": "cafe", "name": "Airr Toast"}}, {"type": "node", "id": 5422169221, "lat": 26.9042168, "lon": 75.7969605, "tags": {"amenity": "cafe", "name": "Curious Life Coffee Roasters"}}, {"type": "node", "id": 5435708321, "lat": 26.9023809, "lon": 75.8015211, "tags": {"amenity": "fast_food", "name:en": "Street Thali"}}, {"type": "node", "id": 5436562222, "lat": 26.9331132, "lon": 75.7963001, "tags": {"amenity": "fuel", "name:en": "HP"}}, {"type": "node", "id": 5456498252, "lat": 26.9209145, "lon": 75.8176174, "tags": {"amenity": "toilets", "name": "Toilet, self-cleaning, Jaipur"}}, {"type": "node", "id": 5456499667, "lat": 26.926182, "lon": 75.8268237, "tags": {"amenity": "toilets", "name": "Public Toilet, Jaipur"}}, {"type": "node", "id": 5456499721, "lat": 26.9177092, "lon": 75.8163568, "tags": {"amenity": "toilets", "name": "Public Toilet, Jaipur"}}, {"type": "node", "id": 5468492121, "lat": 26.9112425, "lon": 75.8197191, "tags": {"amenity": "cafe", "name:en": "caf\u00e9 coffee day"}}, {"type": "node", "id": 5472365490, "lat": 26.9166027, "lon": 75.8602353, "tags": {"amenity": "parking", "name": "Parking"}}, {"type": "node", "id": 5472368646, "lat": 26.9166823, "lon": 75.8584851, "tags": {"amenity": "toilets", "name": "Vip toilets"}}, {"type": "node", "id": 5473212045, "lat": 26.9177909, "lon": 75.7950769, "tags": {"amenity": "police", "name": "Police Station"}}, {"type": "node", "id": 5474777676, "lat": 26.9024492, "lon": 75.7407036, "tags": {"addr:street": "Akshardham Mandir Road", "amenity": "place_of_worship", "name": "Akshardham-Mandir Temple"}}, {"type": "node", "id": 5474874613, "lat": 26.9054685, "lon": 75.7442068, "tags": {"amenity": "bar", "name": "Flapjack"}}, {"type": "node", "id": 5533496172, "lat": 26.8591336, "lon": 75.8087148, "tags": {"addr:city": "Jaipur", "addr:housenumber": "202, 2nd Floor, SDC Building, Opposite Bharat Petrol Pump, Moji Colony", "addr:postcode": "302017", "addr:street": "Calgary Road", "amenity": "hospital", "description": "For a relaxed and safe dental experience, combined with the highest standard of dental treatment and care in Jaipur, look no further than Face Kraft Clinic Jaipur. At Face Kraft, our passion is to provide the highest standard of dental care", "email": "facekraftclinicofficial@gmail.com", "emergency": "yes", "healthcare": "hospital", "healthcare:speciality": "dental_oral_maxillo_facial_surgery;dentist;dental_surgery;dental;tooth_whitening", "name": "Face kraft - Centre for advanced dentistry", "operator": "Dr. Prateek Jain", "phone": "+917023271994", "start_date": "7-Dec-12"}}, {"type": "node", "id": 5534904751, "lat": 26.8563028, "lon": 75.7741405, "tags": {"amenity": "place_of_worship", "denomination": "hindu", "name": "Shiva Temple", "religion": "hindu"}}, {"type": "node", "id": 5534909210, "lat": 26.8642006, "lon": 75.7673019, "tags": {"amenity": "place_of_worship", "name": "Shiva Mandir", "religion": "hindu"}}, {"type": "node", "id": 5534914025, "lat": 26.851119, "lon": 75.7691169, "tags": {"amenity": "place_of_worship", "name": "Shree Mahaveer Mandir", "religion": "hindu"}}, {"type": "node", "id": 5579575445, "lat": 26.9342829, "lon": 75.8253191, "tags": {"amenity": "cafe", "name:en": "Nice Cafe (it's the name)"}}, {"type": "node", "id": 5579575531, "lat": 26.930591, "lon": 75.8278325, "tags": {"amenity": "restaurant", "cuisine": "chinese;indian", "name:en": "Venus Restaurant"}}, {"type": "node", "id": 5579671422, "lat": 26.9202534, "lon": 75.8023373, "tags": {"amenity": "bicycle_rental"}}, {"type": "node", "id": 5579686421, "lat": 26.9304449, "lon": 75.8284459, "tags": {"amenity": "restaurant", "name:en": "Royal Sheritan Rooftop Bar"}}, {"type": "node", "id": 5579686521, "lat": 26.9511782, "lon": 75.857326, "tags": {"amenity": "place_of_worship", "name": "Sankat Mochan Temple", "name:en": "Hanuman Temple", "name:fr": "Temple d\u2019Hanuman"}}, {"type": "node", "id": 5582501185, "lat": 26.8918721, "lon": 75.8101422, "tags": {"addr:city": "Jaipur", "addr:housenumber": "B-134, Pearl Pleasure Apartments", "addr:postcode": "302015", "addr:street": "Rajendra Marg", "amenity": "hospital", "description": "Best Orthodontist in Bapu nagar, Jaipur. Provides best dental braces in jaipur.", "healthcare": "dentist", "healthcare:speciality": "orthodontist;dentist;orthodontics;dentistry", "name": "Dr. Ramani's Dental Practice", "operator": "Dr. Arun Ramani", "phone": "097838 11114", "website": "http://dentalpracticejaipur.com"}}, {"type": "node", "id": 5602181922, "lat": 26.9281963, "lon": 75.7898239, "tags": {"amenity": "bank", "name:en": "ATM", "name:fr": "Bancomat"}}, {"type": "node", "id": 5603023822, "lat": 26.94956, "lon": 75.837543, "tags": {"amenity": "restaurant", "name:ja": "Pink City Restaurant"}}, {"type": "node", "id": 5717785320, "lat": 26.9284344, "lon": 75.7923832, "tags": {"amenity": "restaurant", "cuisine": "indian", "name": "Umaid Bhawan"}}, {"type": "node", "id": 5756676422, "lat": 26.931796, "lon": 75.7918159, "tags": {"amenity": "hospital", "name:fr": "Sanjavani hospital"}}, {"type": "node", "id": 5792264353, "lat": 26.9334401, "lon": 75.8347763, "tags": {"amenity": "restaurant"}}, {"type": "node", "id": 5806062553, "lat": 26.9247436, "lon": 75.7906405, "tags": {"amenity": "restaurant", "name:en": "Shahi mumal restaurant"}}, {"type": "node", "id": 5940047485, "lat": 26.9157256, "lon": 75.7963116, "tags": {"addr:housenumber": "64", "addr:postcode": "302001", "addr:street": "64 \u0939\u0930\u093f\u0915\u093f\u0936\u0928 \u0938\u094b\u092e\u093e\u0928\u0940 \u092e\u093e\u0930\u094d\u0917 \u0939\u0948\u0925\u094d\u0930\u0908 \u0915\u093f\u0932\u093e \u0905\u091c\u092e\u0947\u0930 \u0930\u094b\u0921 \u091c\u092f\u092a\u0941\u0930", "amenity": "restaurant", "internet_access": "wlan", "name:en": "Chillout Jaipur", "phone": "+9191161111146", "website": "http://www.hathroi.com"}}, {"type": "node", "id": 5953407587, "lat": 26.9140104, "lon": 75.7987636, "tags": {"amenity": "restaurant", "name": "Jaipur modern"}}, {"type": "node", "id": 6029009694, "lat": 26.9396438, "lon": 75.8369237, "tags": {"amenity": "restaurant", "internet_access": "wlan", "name:en": "green pigeon"}}, {"type": "node", "id": 6029038596, "lat": 26.9397188, "lon": 75.8369813, "tags": {"amenity": "restaurant", "name": "Green pigeon"}}, {"type": "node", "id": 6029038599, "lat": 26.9397212, "lon": 75.8370234, "tags": {"amenity": "restaurant"}}, {"type": "node", "id": 6054477937, "lat": 26.6973962, "lon": 75.2562294, "tags": {"amenity": "restaurant", "name": "Saini Bhojanalay"}}, {"type": "node", "id": 6059248504, "lat": 27.6540977, "lon": 76.1434799, "tags": {"amenity": "restaurant", "cuisine": "indian", "name": "Hari Pavitra Bhojanalaya"}}, {"type": "node", "id": 6062908585, "lat": 26.9871861, "lon": 75.8545361, "tags": {"amenity": "cafe", "name:en": "Kokum Bistro"}}, {"type": "node", "id": 6065711088, "lat": 26.8477366, "lon": 75.7817572, "tags": {"amenity": "veterinary", "name:en": "Help in Suffering"}}, {"type": "node", "id": 6073914285, "lat": 26.9168472, "lon": 75.816371, "tags": {"amenity": "atm", "operator": "Bank of Baroda"}}, {"type": "node", "id": 6080267585, "lat": 26.9306136, "lon": 75.8282812, "tags": {"amenity": "restaurant", "name:en": "Hawk view restaurant"}}, {"type": "node", "id": 6081535434, "lat": 26.9168307, "lon": 75.8098409, "tags": {"amenity": "bank", "name": "Fingrowth Co-Operative Bank"}}, {"type": "node", "id": 6132079085, "lat": 26.9164866, "lon": 75.8111981, "tags": {"amenity": "fast_food", "name": "Lassiwara"}}, {"type": "node", "id": 6132611585, "lat": 26.9267387, "lon": 75.8277588, "tags": {"addr:street": "Hawa Mahal Road", "amenity": "ice_cream", "name": "Pandit Kulfi", "phone": "09414071922"}}, {"type": "node", "id": 6133852985, "lat": 26.922729, "lon": 75.7997356, "tags": {"addr:postcode": "302006", "amenity": "bus_station", "name:en": "Goldline Super Deluxe Bus Station"}}, {"type": "node", "id": 6157724693, "lat": 26.8963244, "lon": 75.8275177, "tags": {"amenity": "place_of_worship", "name:en": "Gurudwara raja park"}}, {"type": "node", "id": 6158494085, "lat": 26.8615784, "lon": 75.7956052, "tags": {"amenity": "restaurant", "name": "CHANMAN"}}, {"type": "node", "id": 6163167185, "lat": 26.9459487, "lon": 75.8472052, "tags": {"amenity": "fuel", "name": "Indian oil"}}, {"type": "node", "id": 6177748786, "lat": 26.9288163, "lon": 75.82832, "tags": {"amenity": "fast_food", "name:en": "Street food - Samosas"}}, {"type": "node", "id": 6178148286, "lat": 26.9248398, "lon": 75.8225483, "tags": {"amenity": "toilets"}}, {"type": "node", "id": 6183444886, "lat": 26.9163351, "lon": 75.8112672, "tags": {"amenity": "restaurant", "cuisine": "indian", "name:en": "Surya Mahal Restaurant"}}, {"type": "node", "id": 6241370967, "lat": 26.9108674, "lon": 75.7425203, "tags": {"addr:city": "Jaipur", "addr:housenumber": "PLOT NO.3", "addr:postcode": "302021", "addr:street": "GUMMAN PLAZA, Amarpali circle, Vaishali Nagar", "amenity": "bank", "atm": "yes", "brand": "State Bank of India", "brand:wikidata": "Q1340361", "brand:wikipedia": "en:State Bank of India", "currency:INR": "yes", "drive_through": "no", "ifsc_code": "SBIN0004129 (used for RTGS, IMPS and NEFT transactions)", "name": "State Bank of India", "wheelchair": "no"}}, {"type": "node", "id": 6249028885, "lat": 26.9162022, "lon": 75.7958659, "tags": {"addr:housenumber": "59 hathroi fort", "addr:postcode": "302001", "addr:street": "Hari Kisham Somani Marg", "amenity": "restaurant", "cuisine": "italian_pizza;crepe;noodles;asian;pancake;italian;sandwich;curry;ice_cream;local;mediterranean;chinese;tea;fine_dining;pizza;pasta;indian", "email": "hotelkalyan@gmail.com", "internet_access": "wlan", "name": "Kalyan Rooftop Restaurant", "opening_hours": "Mo-Su 07:00-23:50", "operator": "Manoj Gupta", "phone": "9314501591", "website": "https://www.hotelkalyan.com/dining"}}, {"type": "node", "id": 6254109685, "lat": 26.9454547, "lon": 75.8399865, "tags": {"addr:street": "Jamwa Ramgarh Road", "amenity": "restaurant", "cuisine": "indian", "name:en": "Shree Khandelwal Pavitra Bhojanalaya (2nd floor)", "opening_hours": "Mo-Su 10:00-23:00"}}, {"type": "node", "id": 6255764985, "lat": 26.9865438, "lon": 75.8502464, "tags": {"amenity": "cafe", "name:en": "Caf\u00e9 coffee day"}}, {"type": "node", "id": 6255765085, "lat": 26.9238098, "lon": 75.8267198, "tags": {"amenity": "cafe", "name:en": "Caf\u00e9 coffee day"}}, {"type": "node", "id": 6258532425, "lat": 26.7756716, "lon": 75.8787382, "tags": {"amenity": "college", "name": "JECRC University"}}, {"type": "node", "id": 6262869885, "lat": 26.9263484, "lon": 75.8276354, "tags": {"addr:housenumber": "97", "addr:street": "Hawa Mahal Road", "amenity": "restaurant", "cuisine": "chinese", "name:en": "Marky Momos", "phone": "+919783640555", "website": "http://www.markymomos.in"}}, {"type": "node", "id": 6297514686, "lat": 26.9342063, "lon": 75.8527495, "tags": {"amenity": "place_of_worship", "name:en": "Khole Ke Hanuman Ji"}}, {"type": "node", "id": 6299160385, "lat": 26.9913594, "lon": 75.8521042, "tags": {"amenity": "place_of_worship", "name:en": "Badrinath Temple"}}, {"type": "node", "id": 6324050650, "lat": 26.9151355, "lon": 75.7798494, "tags": {"amenity": "school", "name": "Ajeet Vidhya Niketan School"}}, {"type": "node", "id": 6331987313, "lat": 26.9518057, "lon": 75.8415661, "tags": {"amenity": "atm"}}, {"type": "node", "id": 6341259416, "lat": 26.8401687, "lon": 75.8058755, "tags": {"amenity": "hospital", "emergency": "yes", "healthcare": "hospital", "name": "Eternal Heart Care Center"}}, {"type": "node", "id": 6356146986, "lat": 26.8902737, "lon": 75.7946599, "tags": {"addr:housenumber": "B-45", "addr:postcode": "302005", "addr:street": "Sahakar Marg", "amenity": "dentist", "name": "Thaper Dental", "name:en": "Thaper Dental Clinic In Jaipur", "opening_hours": "Mo-Sa 09:00-21:00", "phone": "+91 141 274 3788", "website": "http://www.http://www.thaperdentalclinic.com/"}}, {"type": "node", "id": 6364179589, "lat": 26.9176937, "lon": 75.8168949, "tags": {"amenity": "bank", "name:he": "\u05d7\u05e0\u05d5\u05ea \u05e6\u05d9\u05dc\u05d5\u05dd \u05de\u05d9\u05d4"}}, {"type": "node", "id": 6395534385, "lat": 26.8952145, "lon": 75.8170777, "tags": {"addr:street": "Moti Doongri Road", "amenity": "place_of_worship", "name:en": "Moti Doongri Ganesh Temple", "opening_hours": "Mo-Su 05:30-13:30, 16:30-21:00"}}, {"type": "node", "id": 6448832317, "lat": 26.9241878, "lon": 75.7894132, "tags": {"addr:city": "JAIPUR", "addr:housenumber": "KE-7", "addr:postcode": "302016", "addr:street": "Kabir Marg", "amenity": "restaurant", "name": "CRUV.ORG"}}, {"type": "node", "id": 6477759985, "lat": 26.9163003, "lon": 75.8080015, "tags": {"amenity": "restaurant", "cuisine": "indian", "name:en": "dasaprakash"}}, {"type": "node", "id": 6479937688, "lat": 26.9242783, "lon": 75.7883111, "tags": {"amenity": "restaurant", "description": "Indian restaurant (meal 60-120R, chapati 6R, thali 80-140R)", "name": "Shri Krishna Restaurant"}}, {"type": "node", "id": 6495823926, "lat": 27.2271719, "lon": 75.9484595, "tags": {"amenity": "fuel"}}, {"type": "node", "id": 6509321886, "lat": 26.9253797, "lon": 75.7909073, "tags": {"addr:postcode": "302016", "addr:street": "Kabir Marg", "amenity": "restaurant", "cuisine": "italian_pizza;pasta;asian;italian;indian", "email": "atithiyacafe@gmail.com", "name": "Atithiya", "phone": "8290405434"}}, {"type": "node", "id": 6630557586, "lat": 26.9231668, "lon": 75.7937215, "tags": {"amenity": "fuel", "name:en": "Bharat Petroleum"}}, {"type": "node", "id": 6631002085, "lat": 26.9536021, "lon": 75.8420935, "tags": {"amenity": "toilets"}}, {"type": "node", "id": 6631002785, "lat": 26.9544638, "lon": 75.8421347, "tags": {"amenity": "fuel", "name:en": "HP"}}, {"type": "node", "id": 6632653415, "lat": 26.9242521, "lon": 75.8262339, "tags": {"amenity": "motorcycle_parking"}}, {"type": "node", "id": 6632695897, "lat": 26.9245343, "lon": 75.8263141, "tags": {"amenity": "toilets"}}, {"type": "node", "id": 6633319187, "lat": 26.9294335, "lon": 75.8029083, "tags": {"amenity": "atm", "operator": "SBI"}}, {"type": "node", "id": 6718124385, "lat": 26.9183926, "lon": 75.8213095, "tags": {"amenity": "cafe", "name": "Sahu Ki Chai"}}, {"type": "node", "id": 6728959764, "lat": 26.9347868, "lon": 75.9233302, "tags": {"addr:city": "Jaipur", "addr:housenumber": "Amul Cafe", "addr:postcode": "302031", "addr:street": "LNM Institute of Information Technology", "amenity": "cafe", "cuisine": "coffee_shop;pizza;burger;sandwich;indian", "delivery": "yes", "internet_access": "yes", "internet_access:fee": "no", "name": "Amul Cafe", "outdoor_seating": "yes", "payment:cash": "yes", "payment:contactless": "yes"}}, {"type": "node", "id": 6728990941, "lat": 26.9346954, "lon": 75.9233219, "tags": {"addr:city": "Jaipur", "addr:housenumber": "Bazingaa", "addr:postcode": "302031", "addr:street": "LNMIIT", "amenity": "restaurant", "cuisine": "pizza;regional;burger;italian;sandwich;indian", "name": "Bazingaa", "opening_hours": "Mo-Su 09:00-21:00"}}, {"type": "node", "id": 6728990942, "lat": 26.9347409, "lon": 75.9234112, "tags": {"addr:city": "Jaipur", "addr:housenumber": "Food Barn", "addr:postcode": "302031", "addr:street": "LNMIIT", "air_conditioning": "yes", "amenity": "restaurant", "cuisine": "pizza;regional;burger;coffee_shop;indian", "delivery": "yes", "name": "Food Barn", "opening_hours": "24/7"}}, {"type": "node", "id": 6766661285, "lat": 26.9024904, "lon": 75.7943953, "tags": {"amenity": "cafe", "name": "Nibs Restaurant Cafe"}}, {"type": "node", "id": 6780596585, "lat": 26.9214409, "lon": 75.8192213, "tags": {"amenity": "fast_food", "name": "Tasty King", "name:en": "Tasty King (cheap, quick and delicious)"}}, {"type": "node", "id": 6815869704, "lat": 26.8545195, "lon": 75.8052136, "tags": {"amenity": "atm", "name": "ATM"}}, {"type": "node", "id": 6815872009, "lat": 26.9253855, "lon": 75.8238529, "tags": {"amenity": "restaurant", "name": "City palace"}}, {"type": "node", "id": 6815891298, "lat": 26.8549744, "lon": 75.8054398, "tags": {"amenity": "cafe", "name": "Amarnath Caf\u00e9"}}, {"type": "node", "id": 6848303186, "lat": 26.9398195, "lon": 75.8165576, "tags": {"amenity": "cafe", "name:en": "Hot & cold"}}, {"type": "node", "id": 6855397988, "lat": 26.9174489, "lon": 75.8185448, "tags": {"amenity": "restaurant", "name:en": "Mohan Restaurant"}}, {"type": "node", "id": 6859993686, "lat": 26.9275854, "lon": 75.7906096, "tags": {"amenity": "atm"}}, {"type": "node", "id": 6866495534, "lat": 26.9527483, "lon": 75.8268016, "tags": {"amenity": "place_of_worship", "religion": "hindu"}}, {"type": "node", "id": 6885045796, "lat": 26.7698118, "lon": 75.8545232, "tags": {"addr:city": "Jaipur", "addr:district": "JAIPUR", "addr:full": "Riico Institutional Area, Sitapura, Tonk Road", "addr:postcode": "302022", "addr:state": "Rajasthan", "amenity": "blood_bank", "contact:helpline": "18001806002 , 0141 2771777", "contact:phone": "01412771777; ext109/110; 01412770900", "email": "mghbloodbank@gmail.com", "fax": "0141-2770303 /2770900", "name": "Mahatama Gandhi National Institute of Medical Sciences (MGNIMS) Blood Bank", "opening_hours": "24/7", "operator:type": "private", "source": "OpenGovernmentData", "website": "http://www.mgmch.org/"}}, {"type": "node", "id": 6895218082, "lat": 26.9389133, "lon": 75.7811286, "tags": {"addr:city": "Jaipur", "addr:district": "JAIPUR", "addr:full": "52-53, Ashok Vihar, Ambabari Bridge, Behind petol pump, Jhotwara Road", "addr:postcode": "302012", "addr:state": "Rajasthan", "amenity": "blood_bank", "contact:mobile": "9414806888", "contact:phone": "0141-2336135", "email": "bloodbnkjaipur@gmail.com", "name": "Pushpa Devi Memorial Blood Bank", "opening_hours": "24/7", "operator:type": "ngo", "source": "OpenGovernmentData"}}, {"type": "node", "id": 6895218157, "lat": 26.8869785, "lon": 75.834133, "tags": {"addr:city": "Jaipur", "addr:district": "JAIPUR", "addr:full": "Sector 4, Jawahar Nagar, Monilek meag Jawahar nagar, Near UDB Building jawahar nagar", "addr:postcode": "302004", "addr:state": "Rajasthan", "amenity": "blood_bank", "contact:helpline": "090019 94820, 09001994823", "contact:mobile": "09001994821-23", "contact:phone": "01412651393; 01412653022", "email": "kumarsarvesh892@gmail.com", "fax": "0141 2652830, 0141 2652832", "name": "Monilek Hospital and Research Center Blood Bank", "opening_hours": "24/7", "operator:type": "ngo", "source": "OpenGovernmentData", "website": "http://monilekhospital.com/"}}, {"type": "node", "id": 6897677425, "lat": 26.85721, "lon": 75.8005732, "tags": {"addr:city": "Jaipur", "addr:district": "JAIPUR", "addr:full": "Milap Nagar, Tonk Road, Jaipur", "addr:postcode": "302018", "addr:state": "Rajasthan", "amenity": "blood_bank", "contact:helpline": "9414980219", "contact:mobile": "9414980219", "contact:phone": "01412552034; (Extn:200)", "email": "rajarambasira@gmail.com", "name": "Jaipuria Hospital Blood Bank", "opening_hours": "24/7", "operator:type": "government", "source": "OpenGovernmentData", "website": "http://www.jaipuria.co/hospital/index.html"}}, {"type": "way", "id": 163413252, "center": {"lat": 26.9165428, "lon": 75.7956826}, "nodes": [1751113632, 1751113835, 1751113838, 1751113686, 1751113632], "tags": {"amenity": "parking"}}, {"type": "way", "id": 163413856, "center": {"lat": 26.9374085, "lon": 75.8150596}, "nodes": [1751119580, 1751119611, 1751119584, 1751119586, 1751119578, 1751119580], "tags": {"amenity": "parking"}}, {"type": "way", "id": 163423844, "center": {"lat": 26.9210074, "lon": 75.7873894}, "nodes": [1751218849, 1751218810, 1751218823, 1751218839, 1751218849], "tags": {"amenity": "parking", "name": "Rickshaw parking", "parking": "surface"}}, {"type": "way", "id": 170101096, "center": {"lat": 26.9231805, "lon": 75.8275598}, "nodes": [1812532504, 1812532502, 1812532546, 1812532429, 1812532442, 1812532460, 1812532454, 1812532485, 1812532456, 1812532504], "tags": {"addr:city": "Jaipur", "addr:postcode": "302003", "addr:street": "Badi Chaupar", "amenity": "police", "building": "yes", "name": "Police Thana Manak Chowk", "phone": "0141 260 1366", "website": "http://jaipurpolice.rajasthan.gov.in/"}}, {"type": "way", "id": 170101099, "center": {"lat": 26.9223391, "lon": 75.826228}, "nodes": [1812532498, 4806799788, 4806799787, 1812532499, 1812532533, 1812532437, 4806792993, 1812532491, 2777043248, 2777043247, 2777043246, 2777043245, 2777043244, 1812532498], "tags": {"amenity": "marketplace", "building": "yes", "name": "Sari market"}}, {"type": "way", "id": 191859858, "center": {"lat": 26.9878199, "lon": 75.8513426}, "nodes": [2024232806, 2024232814, 2024232823, 2024232827, 2024232830, 2024232832, 2024232837, 2024332401, 2024232825, 2024232822, 2024232820, 2024232821, 2024232819, 2024232817, 2024232816, 2024232813, 2024232812, 2024232811, 2024232810, 2024232808, 2024232807, 2024232805, 2024232804, 2024232806], "tags": {"access": "yes", "amenity": "parking", "covered": "no", "surface": "asphalt"}}, {"type": "way", "id": 191862523, "center": {"lat": 26.9881773, "lon": 75.8517819}, "nodes": [2024329659, 2024329666, 2024329668, 2024329669, 2024329667, 2024329665, 2024329664, 2024329658, 2024332403, 2024329663, 3738910942, 2024329661, 2024329662, 2024329659], "tags": {"amenity": "parking", "parking": "surface"}}, {"type": "way", "id": 192280056, "center": {"lat": 26.9801092, "lon": 75.8516563}, "nodes": [2028390480, 2028390482, 2028390481, 2028390479, 2028390476, 2028390471, 2028390473, 2028390475, 2028390477, 2028390478, 2028390480], "tags": {"amenity": "parking", "parking": "surface"}}, {"type": "way", "id": 192280063, "center": {"lat": 26.9798454, "lon": 75.8516153}, "nodes": [2028390474, 2028390468, 2028390467, 2028390465, 2028390466, 2028390469, 2028390472, 2028390474], "tags": {"amenity": "parking", "parking": "surface"}}, {"type": "way", "id": 223785883, "center": {"lat": 26.9237981, "lon": 75.8013088}, "nodes": [2326592448, 2326592449, 2326592445, 2326592448], "tags": {"amenity": "cafe", "building": "yes", "name": "parking area near bus stand"}}, {"type": "way", "id": 230826821, "center": {"lat": 26.8925441, "lon": 75.8045365}, "nodes": [2392676985, 2392676934, 2392677009, 2392676960, 2392677008, 2392676971, 2392676985], "tags": {"amenity": "hospital", "building": "yes", "name": "Jaipur Hospital"}}, {"type": "way", "id": 230845534, "center": {"lat": 26.8837021, "lon": 75.8111952}, "nodes": [2392814216, 2392814242, 2392814235, 2392814221, 2392814220, 2392814254, 2392814244, 2392814214, 2392814240, 2392814212, 2392814259, 2392814224, 2392814231, 2392814249, 2392814216], "tags": {"amenity": "school", "name": "Raja Ramdev Poddar Senior Secondary School"}}, {"type": "way", "id": 230927032, "center": {"lat": 26.8921584, "lon": 75.8154896}, "nodes": [2393560601, 2393560593, 2393560550, 2393560548, 2393560601], "tags": {"amenity": "place_of_worship", "building": "yes", "name": "Birla Mandir", "name:zh": "\u6bd4\u62c9\u5e99", "wikidata": "Q4916529"}}, {"type": "way", "id": 237962349, "center": {"lat": 27.0293391, "lon": 75.8934479}, "nodes": [2458204090, 2458204092, 2458204094, 2458204096, 2458204097, 2458204098, 2458204099, 2458204100, 2458204101, 2458204090], "tags": {"addr:city": "Kukas, Jaipur", "addr:housename": "ACEIT", "addr:housenumber": "SP-42", "addr:postcode": "303101", "addr:street": "RIICO Industrial Area", "amenity": "college", "name": "Arya College of Engineering and Information Technology", "source": "I study here.", "website": "https://www.aryacollege.org/", "wheelchair": "no", "wikipedia": "en:Arya College of Engineering & I.T."}}, {"type": "way", "id": 237962625, "center": {"lat": 27.0303673, "lon": 75.8927076}, "nodes": [2458206007, 2458206008, 2458206009, 2458206010, 2458206007], "tags": {"amenity": "restaurant", "building": "yes", "cuisine": "multi", "name": "De-novo Restaurant"}}, {"type": "way", "id": 237964454, "center": {"lat": 27.0285395, "lon": 75.8947541}, "nodes": [2458204100, 2458217902, 2458217903, 2458217904, 2458204100], "tags": {"addr:city": "Kuaks, Jaipur", "addr:housename": "JEC Group of colleges", "addr:housenumber": "SP-43", "addr:postcode": "303101", "addr:street": "RIICO Indistrial Area", "amenity": "college", "name": "Jaipur Engineering College", "phone": "+91 1426 247 345", "website": "www.jeckukas.org.in", "wikidata": "Q6124125"}}, {"type": "way", "id": 237964677, "center": {"lat": 27.0279065, "lon": 75.8959637}, "nodes": [2458217902, 2458220433, 2458220434, 2458217903, 2458217902], "tags": {"addr:city": "Kuaks, Jaipur", "addr:housenumber": "SP-44", "addr:postcode": "303101", "addr:street": "RIICO Industrial Area", "amenity": "college", "name": "Shankara Institute of Technology", "phone": "+91 1426 227 005/422", "website": "www.shankaratechnology.org"}}, {"type": "way", "id": 262856167, "center": {"lat": 26.9308415, "lon": 75.7959575}, "nodes": [2685104760, 2685104734, 2685104836, 2685104878, 2685104760], "tags": {"addr:city": "Jaipur", "addr:postcode": "302016", "amenity": "school", "name": "Children's Academy"}}, {"type": "way", "id": 263464898, "center": {"lat": 26.9273935, "lon": 75.7935552}, "nodes": [2690849771, 2690849947, 2690849850, 2690849760, 2690849657, 2690849847, 2690849770, 2690849872, 2690849771], "tags": {"amenity": "public_building", "building": "yes", "name": "Alternatr Disputes Resolution Centre"}}, {"type": "way", "id": 263767619, "center": {"lat": 26.9130233, "lon": 75.7916631}, "nodes": [2694208920, 2694208944, 2694208884, 2694209011, 2694208977, 2694208922, 2694208903, 2694208920], "tags": {"amenity": "bus_station"}}, {"type": "way", "id": 263767627, "center": {"lat": 26.9127522, "lon": 75.7901045}, "nodes": [2694209058, 2694209059, 2694209032, 2694209087, 2694209058], "tags": {"addr:city": "Jaipur", "addr:housename": "5 Achrol House", "addr:street": "Civil Linea", "amenity": "clinic", "building": "yes", "name": "Tandon Eye Centre", "source": "survey"}}, {"type": "way", "id": 263783909, "center": {"lat": 26.9439384, "lon": 75.8386095}, "nodes": [2694369021, 2694369017, 2694369020, 2694369001, 2694369021], "tags": {"amenity": "swimming_pool", "sport": "swimming"}}, {"type": "way", "id": 265217032, "center": {"lat": 26.9296759, "lon": 75.8018909}, "nodes": [2708780265, 2708779958, 2708779842, 2708779969, 2708779905, 2708779783, 2708779770, 2708779935, 2708780281, 2708780265], "tags": {"amenity": "college", "building": "yes", "name": "SSG Pareek PG Girls' College"}}, {"type": "way", "id": 272783000, "center": {"lat": 26.9217019, "lon": 75.8261538}, "nodes": [2777043249, 2777043250, 2777043251, 2777043252, 2777043249], "tags": {"addr:city": "Mumabi", "amenity": "place_of_worship", "building": "yes", "name": "Jama Masjid", "religion": "muslim"}}, {"type": "way", "id": 278532982, "center": {"lat": 26.9116656, "lon": 75.7440118}, "nodes": [6333537887, 6333538085, 6333537486, 6333537887], "tags": {"addr:city": "jaipur", "addr:street": "amrapali circle, vaishali", "amenity": "cafe", "building": "yes", "cuisine": "coffee_shop", "internet_access": "no", "name": "Cafe Coffee Day"}}, {"type": "way", "id": 350312562, "center": {"lat": 26.8598377, "lon": 75.8136638}, "nodes": [3560531651, 3560531652, 3560531653, 3560531654, 3560531651], "tags": {"addr:city": "Jaipur", "addr:postcode": "302017", "addr:street": "inside MNIT", "amenity": "university", "name": "Sports Ground", "operator": "MNIT"}}, {"type": "way", "id": 370170822, "center": {"lat": 26.8464159, "lon": 75.8036259}, "nodes": [3738948483, 3738948496, 3738948489, 3738948481, 3738948483], "tags": {"addr:city": "Jaipur", "addr:country": "IN", "addr:district": "Jaipur", "addr:state": "Rajasthan", "addr:street": "JLN Road", "amenity": "hospital", "name": "Fortis Escort Hospital"}}, {"type": "way", "id": 370945542, "center": {"lat": 27.0153932, "lon": 75.7489133}, "nodes": [3746052759, 3746052760, 3778020946, 3746052761, 3778020938, 3746052762, 3746052759], "tags": {"amenity": "school", "name": "Nindad School Compound"}}, {"type": "way", "id": 371295850, "center": {"lat": 26.876786, "lon": 75.2639065}, "nodes": [3748717027, 3748717028, 3748717029, 3748717030, 3748715923, 3748717027], "tags": {"amenity": "school", "name": "Kachroda Higher secondary school", "operator": "Government of Rajasthan"}}, {"type": "way", "id": 374811474, "center": {"lat": 26.915436, "lon": 75.8100778}, "nodes": [3781906922, 3781906923, 3781906924, 3781906925, 3781906922], "tags": {"amenity": "cinema", "building": "yes", "name": "Rajmandir"}}, {"type": "way", "id": 374811875, "center": {"lat": 26.9128192, "lon": 75.8088097}, "nodes": [3781914343, 3781914344, 3781914345, 3781914346, 3781914343], "tags": {"amenity": "school", "name": "St. Xavier Sr. Sec. School"}}, {"type": "way", "id": 375890414, "center": {"lat": 26.9449824, "lon": 75.7979792}, "nodes": [3792309494, 3792309496, 3792309500, 3792309501, 3792309502, 3792309499, 3792309494], "tags": {"amenity": "hospital", "emergency": "yes", "name": "Haribux Kanwatia Govt. Hospital"}}, {"type": "way", "id": 375890415, "center": {"lat": 26.9447007, "lon": 75.7972201}, "nodes": [3792309493, 3792309495, 3792309497, 3792309498, 3792309499, 3792309494, 3792309493], "tags": {"amenity": "hospital", "emergency": "yes", "name": "Imperial Hospital"}}, {"type": "way", "id": 409830154, "center": {"lat": 26.9912766, "lon": 75.850791}, "nodes": [4116996516, 4116996517, 4117010200, 4116996518, 4116996519, 4116996520, 4116996522, 4116996524, 4116996525, 4116996526, 4116996527, 4116996516], "tags": {"amenity": "place_of_worship", "building": "yes", "name": "Sri Jagat Siromaniji Temple", "name:en": "Shiromani temple", "name:fr": "Temple Shiromani", "phone": "+91-141-253-6264", "religion": "hindu"}}, {"type": "way", "id": 409832574, "center": {"lat": 26.9890242, "lon": 75.8512408}, "nodes": [4117020210, 4117020211, 4117020212, 4117020213, 4117020221, 4117020214, 4117020215, 4117020216, 4117020222, 4117020217, 4117020218, 4117020219, 4117020220, 4117020210], "tags": {"amenity": "place_of_worship", "religion": "hindu"}}, {"type": "way", "id": 409832575, "center": {"lat": 26.9889516, "lon": 75.8511558}, "nodes": [4117020223, 4117020224, 4117020225, 4117020226, 4117020227, 4117020228, 4117020229, 4117020230, 4117020237, 4117020231, 4117020232, 4117020233, 4117020234, 4117020235, 4117020238, 4117020236, 4117020223], "tags": {"amenity": "place_of_worship", "building": "yes", "religion": "hindu"}}, {"type": "way", "id": 409832696, "center": {"lat": 26.9911942, "lon": 75.8474818}, "nodes": [4117021401, 4117021402, 4117021403, 4117021404, 4117021405, 4117021406, 4117021401], "tags": {"amenity": "parking"}}, {"type": "way", "id": 409833225, "center": {"lat": 26.9896075, "lon": 75.8454055}, "nodes": [4117022775, 4117022776, 4117022777, 4117022778, 4117022779, 4117022780, 4117022781, 4117022782, 4117022783, 4117022784, 4117022785, 4117022786, 4117022787, 4117022788, 4117022775], "tags": {"amenity": "place_of_worship", "building": "yes", "religion": "hindu"}}, {"type": "way", "id": 412807470, "center": {"lat": 26.9742788, "lon": 75.7610734}, "nodes": [4141390612, 4141390613, 4141390614, 4141390615, 4141390612], "tags": {"amenity": "hospital", "name": "Murlipura Govt Hospital"}}, {"type": "way", "id": 458317708, "center": {"lat": 26.9352426, "lon": 75.7996744}, "nodes": [4543466143, 4543466157, 4543466137, 4543466138, 4543466143], "tags": {"amenity": "school", "name": "Tagore Public School"}}, {"type": "way", "id": 461300963, "center": {"lat": 26.9775948, "lon": 75.7742181}, "nodes": [4568171771, 3783117641, 4568171772, 4568171773, 4568171771], "tags": {"amenity": "hospital", "name": "Jyoi hospital"}}, {"type": "way", "id": 494265374, "center": {"lat": 26.9346014, "lon": 75.8242291}, "nodes": [4860460649, 4860460650, 4860460651, 4860460652, 4860460649], "tags": {"amenity": "place_of_worship", "building": "yes", "name": "Shiva Temple", "religion": "hindu"}}, {"type": "way", "id": 495716022, "center": {"lat": 26.842934, "lon": 75.5652171}, "nodes": [4874459413, 4874459414, 4874459415, 4874459416, 4874459417, 4874459418, 4874459419, 4874459420, 4874459821, 4874459822, 4874459823, 4874459824, 4874459825, 4874459826, 4874459827, 4874459828, 4874459829, 4874459830, 4874459831, 4874459832, 4874459833, 4874459834, 4874459835, 4874459836, 4874459837, 4874459838, 4874459839, 4874459840, 4874459841, 4874459842, 4874459843, 4874459844, 4874459845, 4874459846, 4874459413], "tags": {"addr:city": "Dahmi Kalan", "amenity": "university", "name": "Manipal University Jaipur"}}, {"type": "way", "id": 532234580, "center": {"lat": 26.8398057, "lon": 75.8009173}, "nodes": [5165202903, 5165202904, 5165202905, 5165202906, 5165202907, 5165202908, 5165202909, 5165202891, 5165202892, 5165202895, 5165202896, 5165202897, 5165202898, 5165202899, 5165202900, 5165202901, 5165202902, 5165202893, 5165202894, 5165202903], "tags": {"amenity": "fountain"}}, {"type": "way", "id": 546582072, "center": {"lat": 26.8289554, "lon": 75.8038571}, "nodes": [5281992502, 5281992503, 5281992504, 5281992505, 5281992502], "tags": {"amenity": "parking"}}, {"type": "way", "id": 554267135, "center": {"lat": 26.8824079, "lon": 75.8628193}, "nodes": [5349148657, 5349148658, 5349148659, 5349148660, 5349148661, 5349148662, 5349148663, 5349148657], "tags": {"amenity": "place_of_worship", "building": "yes", "name": "Bhomiya Ji Temple", "religion": "hindu"}}, {"type": "way", "id": 561436581, "center": {"lat": 27.7125049, "lon": 76.0236096}, "nodes": [5413728088, 5413728087, 5413728086, 5413728085, 5413728088], "tags": {"amenity": "place_of_worship", "religion": "hindu"}}, {"type": "way", "id": 577068201, "center": {"lat": 26.8538828, "lon": 75.7745654}, "nodes": [6334081685, 6334081885, 6334081686, 6334081685], "tags": {"amenity": "place_of_worship", "building": "yes", "name": "Shiva Temple", "religion": "hindu"}}, {"type": "way", "id": 577331858, "center": {"lat": 26.8521625, "lon": 75.7650622}, "nodes": [6334147185, 6334146897, 6334146895, 6334146896, 6334147185], "tags": {"amenity": "place_of_worship", "building": "yes", "name": "Shiv Mandir", "religion": "hindu"}}, {"type": "way", "id": 579448707, "center": {"lat": 27.1004436, "lon": 75.3858434}, "nodes": [5549408079, 5549408080, 5549408070, 5549408074, 5549408079], "tags": {"amenity": "fuel", "building": "roof", "name": "H P", "source": "GPS"}}, {"type": "way", "id": 584320868, "center": {"lat": 26.8557977, "lon": 76.0051392}, "nodes": [5585534326, 5585534328, 5585533809, 5585533810, 5585534326], "tags": {"amenity": "fuel", "building": "roof", "name": "Indian Oil", "source": "GPS"}}, {"type": "way", "id": 590564667, "center": {"lat": 26.8509769, "lon": 75.7659096}, "nodes": [6334110087, 6334133386, 5638149463, 5638149464, 6334110087], "tags": {"amenity": "place_of_worship", "building": "yes", "description": "Shiv Temple", "name": "Shiv Temple", "religion": "hindu"}}, {"type": "way", "id": 590565341, "center": {"lat": 26.8481857, "lon": 75.7683043}, "nodes": [6333979086, 3787547419, 6334029787, 6334029788, 6333979086], "tags": {"amenity": "cafe", "building": "yes", "name": "Green Leaf Cafe"}}, {"type": "way", "id": 623783424, "center": {"lat": 26.8430769, "lon": 75.8072053}, "nodes": [5890361363, 5890361364, 5890361368, 5890361365, 5890361366, 5890361367, 5890361363], "tags": {"addr:city": "Jaipur", "addr:housenumber": "7/319", "addr:postcode": "302017", "addr:street": "Behind Fortis Hospital, Near Jawahar Circle, Jawahar Lal Nehru Marg, Malviya Nagar", "amenity": "hospital", "emergency": "yes", "healthcare": "hospital", "healthcare:speciality": "oncology;cancer_specialist", "name": "Candrol Cancer Treatment and Research Center", "operator": "Dr. Rishi Sharma"}}, {"type": "way", "id": 631482914, "center": {"lat": 26.9247395, "lon": 75.8208417}, "nodes": [5963505969, 5963505970, 5963505971, 5963505972, 5963505969], "tags": {"amenity": "parking"}}, {"type": "way", "id": 653339529, "center": {"lat": 26.9661292, "lon": 75.7158356}, "nodes": [6123067256, 6123067257, 6123067258, 6123067259, 6123067256], "tags": {"amenity": "school", "name": "SAINT TERESA'S SCHOOL"}}, {"type": "way", "id": 665384542, "center": {"lat": 26.8992507, "lon": 75.7356672}, "nodes": [6227849716, 6227849717, 6227849718, 6227849719, 6227849716], "tags": {"addr:city": "Jaipur", "addr:housenumber": "3, chitrakoot scheme", "addr:postcode": "302021", "addr:street": "Adjoining Stadium, Ajmer Road, Chitrakoot", "amenity": "school", "building:levels": "3", "email": "office@jphschool.com", "name": "JAYSHREE PERIWAL HIGH SCHOOL", "old_name": "step by step school", "phone": "0141-4132222"}}, {"type": "way", "id": 666614410, "center": {"lat": 26.9056061, "lon": 75.7387342}, "nodes": [5734398541, 5734398538, 5734398539, 5734398540, 5734398541], "tags": {"addr:city": "Jaipur", "addr:housenumber": "C-1-27, Opp. Bharat Apartment", "addr:postcode": "302021", "addr:street": "Gandhi Path,Chitrakoot, Vaishali Nagar", "amenity": "hospital", "email": "info@globleheartjpr.org", "emergency": "yes", "healthcare": "hospital", "name": "Global Heart and General Hospital", "phone": "+91141-2440629, +91141-4006290", "website": "http://globalheartjpr.org", "wheelchair": "yes"}}, {"type": "way", "id": 666619928, "center": {"lat": 26.9138905, "lon": 75.7433946}, "nodes": [6241381581, 6241381582, 6241381583, 6241381584, 6241381581], "tags": {"addr:city": "Jaipur", "addr:housenumber": "5A, Gopalji Ka Rasta,", "addr:postcode": "302021", "addr:street": "Gautam Marg, Vaishali Nagar", "amenity": "fuel", "brand": "Indian Oil", "brand:wikidata": "Q1289348", "brand:wikipedia": "en:Indian Oil Corporation", "fuel:diesel": "yes", "fuel:petrol": "yes", "name": "Indian Oil", "opening_hours": "Mo-Sa 06:30-23:00"}}, {"type": "way", "id": 677227866, "center": {"lat": 26.8399609, "lon": 75.8058461}, "nodes": [6341259417, 6341259418, 6341259419, 6341259420, 6341259417], "tags": {"amenity": "hospital", "healthcare": "hospital", "name": "EHCC"}}, {"type": "way", "id": 689311917, "center": {"lat": 26.8257837, "lon": 75.4612247}, "nodes": [6466436247, 6466436248, 6466436249, 6466436250, 6466436251, 6466436252, 6466436247], "tags": {"addr:street": "Jobner Road", "amenity": "university", "name": "Jyoti Vidhyapeeth Womens University"}}, {"type": "way", "id": 705661262, "center": {"lat": 26.9246986, "lon": 75.7929377}, "nodes": [6630570046, 6630570044, 6630570045, 6630570047, 6630570046], "tags": {"amenity": "motorcycle_parking"}}, {"type": "way", "id": 705701290, "center": {"lat": 26.926016, "lon": 75.826021}, "nodes": [6630920619, 6630920612, 6630920623, 6630920616, 6630920619], "tags": {"amenity": "parking"}}, {"type": "way", "id": 705701291, "center": {"lat": 26.9267997, "lon": 75.826261}, "nodes": [6630920617, 6630920610, 6630920622, 6630920614, 6630920617], "tags": {"amenity": "parking"}}, {"type": "way", "id": 705701292, "center": {"lat": 26.9269747, "lon": 75.8254517}, "nodes": [6630920615, 6630920625, 6630920620, 6630920613, 6630920615], "tags": {"amenity": "parking"}}, {"type": "way", "id": 705701293, "center": {"lat": 26.9261699, "lon": 75.8252353}, "nodes": [6630920621, 6630920624, 6630920618, 6630920611, 6630920621], "tags": {"amenity": "parking"}}, {"type": "way", "id": 705826157, "center": {"lat": 26.9810066, "lon": 75.8437997}, "nodes": [6632187490, 6632187489, 6632187488, 6632187487, 6632187486, 6632187485, 6632187484, 6632187483, 6632187482, 6632187481, 6632187480, 6632187479, 6632187478, 6632187477, 6632187490], "tags": {"amenity": "parking"}}, {"type": "way", "id": 706564401, "center": {"lat": 26.9514507, "lon": 75.8006327}, "nodes": [6639599406, 6639599407, 6639599408, 6639599409, 6639599406], "tags": {"amenity": "place_of_worship", "building": "yes", "religion": "hindu"}}, {"type": "way", "id": 716051408, "center": {"lat": 26.935338, "lon": 75.922641}, "nodes": [6728982970, 6728982971, 6728959769, 6728982972, 6728982970], "tags": {"addr:city": "Jaipur", "addr:housenumber": "Adcads", "addr:postcode": "302031", "addr:street": "LNMIIT", "amenity": "university", "building": "commercial", "building:levels": "2", "name": "LNMIIT Academics", "smoking": "no"}}, {"type": "way", "id": 724599682, "center": {"lat": 26.9602308, "lon": 75.8032043}, "nodes": [6795712713, 6795712714, 6795712715, 6795712716, 6795712717, 6795712718, 6795712713], "tags": {"amenity": "place_of_worship", "building": "yes", "religion": "hindu"}}, {"type": "way", "id": 724599683, "center": {"lat": 26.9604957, "lon": 75.8035524}, "nodes": [6795712719, 6795712720, 6795712721, 6795712722, 6795712723, 6795712725, 6795712724, 6795712719], "tags": {"amenity": "school"}}]}